(STITCH_COUNT:1100)
(EXTENTS_LEFT:-46.051)
(EXTENTS_TOP:-38.493)
(EXTENTS_RIGHT:46.051)
(EXTENTS_BOTTOM:38.493)
(EXTENTS_WIDTH:92.102)
(EXTENTS_HEIGHT:76.986)

G90 (use absolute coordinates)
G21 (coordinates will be specified in millimeters)
G0 X0.0 Y0.0

G0 X16.411 Y1.569
G0 Z0.0
G0 X16.576 Y1.214
G0 Z1.0
G0 X20.242 Y-0.749
G0 Z0.0
G0 X22.082 Y-3.367
G0 Z1.0
G0 X22.587 Y-7.010
G0 Z0.0
G0 X22.314 Y-9.135
G0 Z1.0
G0 X35.942 Y-9.725
G0 Z0.0
G0 X43.054 Y-8.891
G0 Z1.0
G0 X45.705 Y-7.538
G0 Z0.0
G0 X46.051 Y-6.192
G0 Z1.0
G0 X45.735 Y-5.583
G0 Z0.0
G0 X44.769 Y-8.233
G0 Z1.0
G0 X43.514 Y-8.755
G0 Z0.0
G0 X44.977 Y-4.735
G0 Z1.0
G0 X44.156 Y-4.067
G0 Z0.0
G0 X42.338 Y-9.062
G0 Z1.0
G0 X41.192 Y-9.289
G0 Z0.0
G0 X42.115 Y-6.751
G0 Z1.0
G0 X43.320 Y-3.441
G0 Z0.0
G0 X42.478 Y-2.831
G0 Z1.0
G0 X40.074 Y-9.435
G0 Z0.0
G0 X38.967 Y-9.553
G0 Z1.0
G0 X41.690 Y-2.073
G0 Z0.0
G0 X42.023 Y-1.158
G0 Z1.0
G0 X42.620 Y0.484
G0 Z0.0
G0 X43.353 Y5.418
G0 Z1.0
G0 X37.872 Y-9.638
G0 Z0.0
G0 X36.788 Y-9.691
G0 Z1.0
G0 X38.357 Y-5.383
G0 Z0.0
G0 X43.381 Y8.420
G0 Z1.0
G0 X43.170 Y10.767
G0 Z0.0
G0 X39.982 Y2.007
G0 Z1.0
G0 X35.709 Y-9.734
G0 Z0.0
G0 X34.640 Y-9.746
G0 Z1.0
G0 X41.608 Y9.397
G0 Z0.0
G0 X42.803 Y12.681
G0 Z1.0
G0 X42.279 Y14.166
G0 Z0.0
G0 X33.573 Y-9.753
G0 Z1.0
G0 X32.514 Y-9.740
G0 Z0.0
G0 X34.598 Y-4.015
G0 Z1.0
G0 X41.606 Y15.240
G0 Z0.0
G0 X40.778 Y15.889
G0 Z1.0
G0 X36.223 Y3.375
G0 Z0.0
G0 X31.458 Y-9.717
G0 Z1.0
G0 X30.409 Y-9.676
G0 Z0.0
G0 X37.849 Y10.765
G0 Z1.0
G0 X39.777 Y16.061
G0 Z0.0
G0 X38.573 Y15.678
G0 Z1.0
G0 X29.360 Y-9.635
G0 Z0.0
G0 X28.313 Y-9.595
G0 Z1.0
G0 X30.839 Y-2.646
G0 Z0.0
G0 X37.121 Y14.613
G0 Z1.0
G0 X35.549 Y13.218
G0 Z0.0
G0 X32.465 Y4.743
G0 Z1.0
G0 X27.270 Y-9.528
G0 Z0.0
G0 X26.231 Y-9.460
G0 Z1.0
G0 X34.042 Y12.001
G0 Z0.0
G0 X24.422 Y5.705
G0 Z1.0
G0 X16.252 Y1.438
G0 Z0.0
G0 X16.329 Y1.349
G0 Z1.0
G0 X16.411 Y1.569
G0 Z0.0
G0 X17.683 Y2.140
G0 Z1.0
G0 X17.247 Y0.943
G0 Z0.0
G0 X18.172 Y0.560
G0 Z1.0
G0 X18.979 Y2.778
G0 Z0.0
G0 X20.286 Y3.446
G0 Z1.0
G0 X19.563 Y1.458
G0 Z0.0
G0 X19.064 Y0.088
G0 Z1.0
G0 X19.917 Y-0.492
G0 Z0.0
G0 X21.603 Y4.139
G0 Z1.0
G0 X22.932 Y4.868
G0 Z0.0
G0 X20.718 Y-1.215
G0 Z1.0
G0 X21.451 Y-2.126
G0 Z0.0
G0 X24.270 Y5.619
G0 Z1.0
G0 X25.619 Y6.401
G0 Z0.0
G0 X23.322 Y0.090
G0 Z1.0
G0 X22.073 Y-3.342
G0 Z0.0
G0 X22.516 Y-5.048
G0 Z1.0
G0 X26.982 Y7.224
G0 Z0.0
G0 X28.349 Y8.054
G0 Z1.0
G0 X22.495 Y-8.028
G0 Z0.0
G0 X22.314 Y-9.135
G0 Z1.0
G0 X23.130 Y-9.208
G0 Z0.0
G0 X28.706 Y6.111
G0 Z1.0
G0 X29.737 Y8.945
G0 Z0.0
G0 X31.145 Y9.892
G0 Z1.0
G0 X27.080 Y-1.278
G0 Z0.0
G0 X24.161 Y-9.300
G0 Z1.0
G0 X25.192 Y-9.392
G0 Z0.0
G0 X25.455 Y-8.668
G0 Z1.0
G0 X32.579 Y10.905
G0 Z0.0
G0 X34.041 Y12.000
G0 Z1.0
G0 X37.538 Y15.898
G0 Z0.0
G0 X38.515 Y18.834
G0 Z1.0
G0 X37.849 Y21.427
G0 Z0.0
G0 X37.107 Y22.441
G0 Z1.0
G0 X38.503 Y18.606
G0 Z0.0
G0 X38.058 Y16.904
G0 Z1.0
G0 X35.547 Y23.802
G0 Z0.0
G0 X34.194 Y24.596
G0 Z1.0
G0 X37.391 Y15.812
G0 Z0.0
G0 X36.715 Y14.746
G0 Z1.0
G0 X33.886 Y22.518
G0 Z0.0
G0 X32.912 Y25.193
G0 Z1.0
G0 X31.680 Y25.657
G0 Z0.0
G0 X35.971 Y13.867
G0 Z1.0
G0 X35.200 Y13.061
G0 Z0.0
G0 X30.479 Y26.031
G0 Z1.0
G0 X29.311 Y26.323
G0 Z0.0
G0 X33.632 Y14.444
G0 Z1.0
G0 X34.405 Y12.320
G0 Z0.0
G0 X33.593 Y11.628
G0 Z1.0
G0 X30.127 Y21.150
G0 Z0.0
G0 X28.163 Y26.548
G0 Z1.0
G0 X27.029 Y26.738
G0 Z0.0
G0 X32.771 Y10.962
G0 Z1.0
G0 X31.937 Y10.330
G0 Z0.0
G0 X25.917 Y26.870
G0 Z1.0
G0 X24.818 Y26.966
G0 Z0.0
G0 X29.874 Y13.076
G0 Z1.0
G0 X31.093 Y9.725
G0 Z0.0
G0 X30.244 Y9.134
G0 Z1.0
G0 X26.369 Y19.782
G0 Z0.0
G0 X23.730 Y27.031
G0 Z1.0
G0 X22.658 Y27.053
G0 Z0.0
G0 X22.864 Y26.487
G0 Z1.0
G0 X29.386 Y8.569
G0 Z0.0
G0 X28.521 Y8.021
G0 Z1.0
G0 X21.592 Y27.057
G0 Z0.0
G0 X20.500 Y27.134
G0 Z1.0
G0 X26.115 Y11.708
G0 Z0.0
G0 X27.650 Y7.490
G0 Z1.0
G0 X26.781 Y6.960
G0 Z0.0
G0 X22.610 Y18.414
G0 Z1.0
G0 X19.304 Y27.498
G0 Z0.0
G0 X17.962 Y28.260
G0 Z1.0
G0 X19.105 Y25.119
G0 Z0.0
G0 X25.906 Y6.435
G0 Z1.0
G0 X25.024 Y5.934
G0 Z0.0
G0 X16.492 Y29.376
G0 Z1.0
G0 X14.934 Y30.732
G0 Z0.0
G0 X22.356 Y10.340
G0 Z1.0
G0 X24.142 Y5.433
G0 Z0.0
G0 X23.259 Y4.934
G0 Z1.0
G0 X18.851 Y17.046
G0 Z0.0
G0 X13.377 Y32.086
G0 Z1.0
G0 X11.898 Y33.226
G0 Z0.0
G0 X15.346 Y23.751
G0 Z1.0
G0 X22.374 Y4.444
G0 Z0.0
G0 X21.489 Y3.955
G0 Z1.0
G0 X11.841 Y30.457
G0 Z0.0
G0 X10.521 Y34.084
G0 Z1.0
G0 X9.247 Y34.662
G0 Z0.0
G0 X18.597 Y8.972
G0 Z1.0
G0 X20.602 Y3.465
G0 Z0.0
G0 X19.716 Y2.975
G0 Z1.0
G0 X15.092 Y15.677
G0 Z0.0
G0 X8.057 Y35.007
G0 Z1.0
G0 X6.934 Y35.169
G0 Z0.0
G0 X11.588 Y22.383
G0 Z1.0
G0 X18.828 Y2.490
G0 Z0.0
G0 X17.929 Y2.035
G0 Z1.0
G0 X8.083 Y29.089
G0 Z0.0
G0 X5.874 Y35.158
G0 Z1.0
G0 X4.857 Y35.027
G0 Z0.0
G0 X14.838 Y7.604
G0 Z1.0
G0 X17.002 Y1.658
G0 Z0.0
G0 X16.046 Y1.363
G0 Z1.0
G0 X11.334 Y14.309
G0 Z0.0
G0 X3.879 Y34.789
G0 Z1.0
G0 X2.937 Y34.456
G0 Z0.0
G0 X7.829 Y21.015
G0 Z1.0
G0 X15.058 Y1.153
G0 Z0.0
G0 X14.038 Y1.032
G0 Z1.0
G0 X4.324 Y27.721
G0 Z0.0
G0 X2.025 Y34.036
G0 Z1.0
G0 X1.235 Y33.284
G0 Z0.0
G0 X11.080 Y6.236
G0 Z1.0
G0 X12.984 Y1.004
G0 Z0.0
G0 X11.889 Y1.087
G0 Z1.0
G0 X7.575 Y12.941
G0 Z0.0
G0 X0.637 Y32.004
G0 Z1.0
G0 X0.234 Y30.186
G0 Z0.0
G0 X4.070 Y19.647
G0 Z1.0
G0 X10.755 Y1.281
G0 Z0.0
G0 X9.576 Y1.594
G0 Z1.0
G0 X0.565 Y26.353
G0 Z0.0
G0 X0.030 Y27.823
G0 Z1.0
G0 X-0.014 Y25.023
G0 Z0.0
G0 X7.321 Y4.868
G0 Z1.0
G0 X8.341 Y2.064
G0 Z0.0
G0 X7.059 Y2.662
G0 Z1.0
G0 X3.816 Y11.573
G0 Z0.0
G0 X0.100 Y21.783
G0 Z1.0
G0 X0.292 Y18.333
G0 Z0.0
G0 X5.714 Y3.435
G0 Z1.0
G0 X4.296 Y4.410
G0 Z0.0
G0 X0.524 Y14.771
G0 Z1.0
G0 X0.686 Y11.404
G0 Z0.0
G0 X2.782 Y5.644
G0 Z1.0
G0 X1.128 Y7.262
G0 Z0.0
G0 X0.695 Y8.453
G0 Z1.0
G0 X0.714 Y8.902
G0 Z0.0
G0 X0.815 Y7.788
G0 Z1.0
G0 X0.438 Y7.386
G0 Z0.0
G0 X0.769 Y8.297
G0 Z1.0
G0 X0.558 Y10.638
G0 Z0.0
G0 X-1.172 Y5.890
G0 Z1.0
G0 X-2.668 Y4.703
G0 Z0.0
G0 X0.372 Y13.055
G0 Z1.0
G0 X0.178 Y15.445
G0 Z0.0
G0 X-4.074 Y3.763
G0 Z1.0
G0 X-5.418 Y2.995
G0 Z0.0
G0 X-2.990 Y9.666
G0 Z1.0
G0 X-0.030 Y17.798
G0 Z0.0
G0 X-0.253 Y20.109
G0 Z1.0
G0 X-1.364 Y17.056
G0 Z0.0
G0 X-6.707 Y2.377
G0 Z1.0
G0 X-7.950 Y1.885
G0 Z0.0
G0 X-0.509 Y22.331
G0 Z1.0
G0 X-0.796 Y24.462
G0 Z0.0
G0 X-8.374 Y3.645
G0 Z1.0
G0 X-9.142 Y1.536
G0 Z0.0
G0 X-10.296 Y1.289
G0 Z1.0
G0 X-6.749 Y11.034
G0 Z0.0
G0 X-1.121 Y26.496
G0 Z1.0
G0 X-1.490 Y28.407
G0 Z0.0
G0 X-5.123 Y18.424
G0 Z1.0
G0 X-11.408 Y1.157
G0 Z0.0
G0 X-12.485 Y1.120
G0 Z1.0
G0 X-3.498 Y25.814
G0 Z0.0
G0 X-1.917 Y30.156
G0 Z1.0
G0 X-2.408 Y31.731
G0 Z0.0
G0 X-12.133 Y5.013
G0 Z1.0
G0 X-13.531 Y1.172
G0 Z0.0
G0 X-14.545 Y1.309
G0 Z1.0
G0 X-10.507 Y12.402
G0 Z0.0
G0 X-2.981 Y33.081
G0 Z1.0
G0 X-3.658 Y34.145
G0 Z0.0
G0 X-8.882 Y19.792
G0 Z1.0
G0 X-15.529 Y1.529
G0 Z0.0
G0 X-16.484 Y1.828
G0 Z1.0
G0 X-7.256 Y27.182
G0 Z0.0
G0 X-4.475 Y34.823
G0 Z1.0
G0 X-5.494 Y34.949
G0 Z0.0
G0 X-5.631 Y34.572
G0 Z1.0
G0 X-15.892 Y6.381
G0 Z0.0
G0 X-17.412 Y2.204
G0 Z1.0
G0 X-18.313 Y2.652
G0 Z0.0
G0 X-14.266 Y13.770
G0 Z1.0
G0 X-6.685 Y34.599
G0 Z0.0
G0 X-7.908 Y34.163
G0 Z1.0
G0 X-12.641 Y21.160
G0 Z0.0
G0 X-19.207 Y3.120
G0 Z1.0
G0 X-20.098 Y3.589
G0 Z0.0
G0 X-11.015 Y28.550
G0 Z1.0
G0 X-9.172 Y33.615
G0 Z0.0
G0 X-10.491 Y32.911
G0 Z1.0
G0 X-19.650 Y7.749
G0 Z0.0
G0 X-20.993 Y4.059
G0 Z1.0
G0 X-21.887 Y4.528
G0 Z0.0
G0 X-18.025 Y15.139
G0 Z1.0
G0 X-11.889 Y31.997
G0 Z0.0
G0 X-13.403 Y30.760
G0 Z1.0
G0 X-16.399 Y22.528
G0 Z0.0
G0 X-22.780 Y4.998
G0 Z1.0
G0 X-23.670 Y5.476
G0 Z0.0
G0 X-14.980 Y29.351
G0 Z1.0
G0 X-16.512 Y28.067
G0 Z0.0
G0 X-23.409 Y9.117
G0 Z1.0
G0 X-24.559 Y5.957
G0 Z0.0
G0 X-25.447 Y6.436
G0 Z1.0
G0 X-21.784 Y16.507
G0 Z0.0
G0 X-17.856 Y27.299
G0 Z1.0
G0 X-19.056 Y26.924
G0 Z0.0
G0 X-20.158 Y23.896
G0 Z1.0
G0 X-26.331 Y6.938
G0 Z0.0
G0 X-27.208 Y7.447
G0 Z1.0
G0 X-20.171 Y26.784
G0 Z0.0
G0 X-21.245 Y26.757
G0 Z1.0
G0 X-27.168 Y10.485
G0 Z0.0
G0 X-28.088 Y7.957
G0 Z1.0
G0 X-28.962 Y8.478
G0 Z0.0
G0 X-25.542 Y17.875
G0 Z1.0
G0 X-22.311 Y26.753
G0 Z0.0
G0 X-23.383 Y26.725
G0 Z1.0
G0 X-23.917 Y25.264
G0 Z0.0
G0 X-29.829 Y9.021
G0 Z1.0
G0 X-30.687 Y9.582
G0 Z0.0
G0 X-24.472 Y26.663
G0 Z1.0
G0 X-25.571 Y26.567
G0 Z0.0
G0 X-30.927 Y11.853
G0 Z1.0
G0 X-31.545 Y10.155
G0 Z0.0
G0 X-32.386 Y10.762
G0 Z1.0
G0 X-29.301 Y19.243
G0 Z0.0
G0 X-26.681 Y26.442
G0 Z1.0
G0 X-27.811 Y26.261
G0 Z0.0
G0 X-33.223 Y11.391
G0 Z1.0
G0 X-34.048 Y12.044
G0 Z0.0
G0 X-28.951 Y26.052
G0 Z1.0
G0 X-34.315 Y24.213
G0 Z0.0
G0 X-37.380 Y21.892
G0 Z1.0
G0 X-38.517 Y19.395
G0 Z0.0
G0 X-38.392 Y17.661
G0 Z1.0
G0 X-36.819 Y21.979
G0 Z0.0
G0 X-36.537 Y22.752
G0 Z1.0
G0 X-35.095 Y23.791
G0 Z0.0
G0 X-37.832 Y16.271
G0 Z1.0
G0 X-37.153 Y15.214
G0 Z0.0
G0 X-33.777 Y24.489
G0 Z1.0
G0 X-32.521 Y25.016
G0 Z0.0
G0 X-36.416 Y14.314
G0 Z1.0
G0 X-35.648 Y13.505
G0 Z0.0
G0 X-33.060 Y20.611
G0 Z1.0
G0 X-31.305 Y25.433
G0 Z0.0
G0 X-30.116 Y25.776
G0 Z1.0
G0 X-34.685 Y13.221
G0 Z0.0
G0 X-34.856 Y12.753
G0 Z1.0
G0 X-34.467 Y12.408
G0 Z0.0
G0 X-25.326 Y6.606
G0 Z1.0
G0 X-18.585 Y2.945
G0 Z0.0
G0 X-17.780 Y0.736
G0 Z1.0
G0 X-18.601 Y0.067
G0 Z0.0
G0 X-19.920 Y3.691
G0 Z1.0
G0 X-21.243 Y4.403
G0 Z0.0
G0 X-19.376 Y-0.726
G0 Z1.0
G0 X-20.063 Y-1.762
G0 Z0.0
G0 X-22.565 Y5.113
G0 Z1.0
G0 X-23.886 Y5.821
G0 Z0.0
G0 X-22.495 Y1.997
G0 Z1.0
G0 X-20.609 Y-3.187
G0 Z0.0
G0 X-20.869 Y-5.395
G0 Z1.0
G0 X-25.214 Y6.542
G0 Z0.0
G0 X-26.553 Y7.301
G0 Z1.0
G0 X-20.611 Y-9.028
G0 Z0.0
G0 X-21.645 Y-9.111
G0 Z1.0
G0 X-22.749 Y-6.077
G0 Z0.0
G0 X-27.897 Y8.065
G0 Z1.0
G0 X-29.265 Y8.903
G0 Z0.0
G0 X-26.254 Y0.629
G0 Z1.0
G0 X-22.679 Y-9.194
G0 Z0.0
G0 X-23.714 Y-9.273
G0 Z1.0
G0 X-29.759 Y7.334
G0 Z0.0
G0 X-30.636 Y9.744
G0 Z1.0
G0 X-32.034 Y10.661
G0 Z0.0
G0 X-24.756 Y-9.335
G0 Z1.0
G0 X-25.795 Y-9.397
G0 Z0.0
G0 X-26.508 Y-7.445
G0 Z1.0
G0 X-33.461 Y11.657
G0 Z0.0
G0 X-34.925 Y12.758
G0 Z1.0
G0 X-30.013 Y-0.739
G0 Z0.0
G0 X-26.839 Y-9.458
G0 Z1.0
G0 X-27.890 Y-9.495
G0 Z0.0
G0 X-33.518 Y5.966
G0 Z1.0
G0 X-36.445 Y14.009
G0 Z0.0
G0 X-37.886 Y15.043
G0 Z1.0
G0 X-37.023 Y12.672
G0 Z0.0
G0 X-28.941 Y-9.532
G0 Z1.0
G0 X-39.773 Y-9.289
G0 Z0.0
G0 X-44.587 Y-8.163
G0 Z1.0
G0 X-45.674 Y-7.414
G0 Z0.0
G0 X-46.051 Y-6.380
G0 Z1.0
G0 X-45.404 Y-5.234
G0 Z0.0
G0 X-45.048 Y-6.212
G0 Z1.0
G0 X-44.287 Y-8.302
G0 Z0.0
G0 X-43.073 Y-8.713
G0 Z1.0
G0 X-44.600 Y-4.520
G0 Z0.0
G0 X-43.756 Y-3.913
G0 Z1.0
G0 X-41.917 Y-8.967
G0 Z0.0
G0 X-40.778 Y-9.172
G0 Z1.0
G0 X-42.904 Y-3.331
G0 Z0.0
G0 X-42.051 Y-2.752
G0 Z1.0
G0 X-41.289 Y-4.844
G0 Z0.0
G0 X-39.667 Y-9.302
G0 Z1.0
G0 X-38.562 Y-9.412
G0 Z0.0
G0 X-42.806 Y2.246
G0 Z1.0
G0 X-43.194 Y6.235
G0 Z0.0
G0 X-37.470 Y-9.489
G0 Z1.0
G0 X-36.386 Y-9.545
G0 Z0.0
G0 X-41.035 Y3.230
G0 Z1.0
G0 X-43.115 Y8.943
G0 Z0.0
G0 X-42.836 Y11.100
G0 Z1.0
G0 X-37.530 Y-3.476
G0 Z0.0
G0 X-35.307 Y-9.584
G0 Z1.0
G0 X-34.235 Y-9.605
G0 Z0.0
G0 X-42.385 Y12.786
G0 Z1.0
G0 X-41.790 Y14.074
G0 Z0.0
G0 X-40.781 Y11.304
G0 Z1.0
G0 X-33.167 Y-9.616
G0 Z0.0
G0 X-32.105 Y-9.611
G0 Z1.0
G0 X-37.277 Y4.598
G0 Z0.0
G0 X-41.051 Y14.969
G0 Z1.0
G0 X-40.164 Y15.455
G0 Z0.0
G0 X-33.772 Y-2.108
G0 Z1.0
G0 X-31.045 Y-9.599
G0 Z0.0
G0 X-29.992 Y-9.569
G0 Z1.0
G0 X-30.267 Y-8.813
G0 Z0.0
G0 X-39.115 Y15.498
G0 Z1.0
M00
G0 X-38.184 Y20.895
G0 Z0.0
G0 X-33.335 Y24.581
G0 Z1.0
G0 X-28.528 Y26.413
G0 Z0.0
G0 X-22.443 Y26.901
G0 Z1.0
G0 X-17.772 Y27.232
G0 Z0.0
G0 X-15.218 Y29.387
G0 Z1.0
G0 X-10.355 Y33.084
G0 Z0.0
G0 X-5.529 Y35.329
G0 Z1.0
G0 X-6.431 Y37.384
G0 Z0.0
G0 X-7.727 Y38.492
G0 Z1.0
G0 X-8.564 Y38.493
G0 Z0.0
G0 X-12.937 Y38.493
G0 Z1.0
G0 X-15.418 Y37.494
G0 Z0.0
G0 X-6.522 Y37.493
G0 Z1.0
G0 X-5.846 Y36.493
G0 Z0.0
G0 X-17.374 Y36.493
G0 Z1.0
G0 X-19.148 Y35.493
G0 Z0.0
G0 X-5.514 Y35.493
G0 Z1.0
G0 X-6.461 Y34.705
G0 Z0.0
G0 X-11.410 Y32.451
G0 Z1.0
G0 X-16.325 Y28.262
G0 Z0.0
G0 X-18.253 Y27.097
G0 Z1.0
G0 X-28.220 Y26.482
G0 Z0.0
G0 X-33.101 Y24.708
G0 Z1.0
G0 X-37.543 Y21.494
G0 Z0.0
G0 X-38.408 Y21.493
G0 Z1.0
G0 X-38.713 Y22.493
G0 Z0.0
G0 X-38.564 Y22.493
G0 Z1.0
G0 X-36.395 Y22.493
G0 Z0.0
G0 X-35.065 Y23.493
G0 Z1.0
G0 X-38.943 Y23.493
G0 Z0.0
G0 X-39.108 Y24.493
G0 Z1.0
G0 X-33.496 Y24.493
G0 Z0.0
G0 X-31.461 Y25.493
G0 Z1.0
G0 X-39.178 Y25.493
G0 Z0.0
G0 X-39.182 Y26.493
G0 Z1.0
G0 X-38.564 Y26.493
G0 Z0.0
G0 X-28.169 Y26.493
G0 Z1.0
G0 X-21.548 Y26.886
G0 Z0.0
G0 X-17.585 Y27.302
G0 Z1.0
G0 X-17.210 Y27.493
G0 Z0.0
G0 X-31.064 Y27.493
G0 Z1.0
G0 X-39.070 Y27.493
G0 Z0.0
G0 X-38.847 Y28.493
G0 Z1.0
G0 X-23.564 Y28.493
G0 Z0.0
G0 X-16.097 Y28.493
G0 Z1.0
G0 X-15.115 Y29.492
G0 Z0.0
G0 X-16.064 Y29.493
G0 Z1.0
G0 X-38.459 Y29.493
G0 Z0.0
G0 X-37.886 Y30.493
G0 Z1.0
G0 X-14.001 Y30.493
G0 Z0.0
G0 X-12.767 Y31.493
G0 Z1.0
G0 X-31.064 Y31.493
G0 Z0.0
G0 X-37.018 Y31.493
G0 Z1.0
G0 X-35.687 Y32.493
G0 Z0.0
G0 X-23.564 Y32.493
G0 Z1.0
G0 X-11.348 Y32.493
G0 Z0.0
G0 X-9.569 Y33.492
G0 Z1.0
G0 X-16.064 Y33.493
G0 Z0.0
G0 X-33.360 Y33.493
G0 Z1.0
G0 X-27.924 Y34.179
G0 Z0.0
G0 X-22.016 Y33.992
G0 Z1.0
G0 X-20.943 Y34.492
G0 Z0.0
G0 X-8.564 Y34.493
G0 Z1.0
G0 X-7.088 Y34.493
G0 Z0.0
G0 X-5.520 Y35.343
G0 Z1.0
G0 X1.549 Y34.207
G0 Z0.0
G0 X3.215 Y36.484
G0 Z1.0
G0 X6.120 Y37.656
G0 Z0.0
G0 X10.762 Y37.494
G0 Z1.0
G0 X5.344 Y37.493
G0 Z0.0
G0 X3.227 Y36.493
G0 Z1.0
G0 X6.436 Y36.493
G0 Z0.0
G0 X14.847 Y36.493
G0 Z1.0
G0 X22.403 Y34.226
G0 Z0.0
G0 X25.109 Y34.493
G0 Z1.0
G0 X29.767 Y34.493
G0 Z0.0
G0 X34.476 Y33.398
G0 Z1.0
G0 X37.357 Y31.347
G0 Z0.0
G0 X38.853 Y28.406
G0 Z1.0
G0 X38.993 Y24.388
G0 Z0.0
G0 X38.291 Y21.495
G0 Z1.0
G0 X37.660 Y21.493
G0 Z0.0
G0 X36.800 Y22.493
G0 Z1.0
G0 X38.605 Y22.493
G0 Z0.0
G0 X38.845 Y23.493
G0 Z1.0
G0 X35.748 Y23.493
G0 Z0.0
G0 X34.423 Y24.493
G0 Z1.0
G0 X36.436 Y24.493
G0 Z0.0
G0 X39.010 Y24.493
G0 Z1.0
G0 X39.094 Y25.493
G0 Z0.0
G0 X32.543 Y25.493
G0 Z1.0
G0 X29.113 Y26.493
G0 Z0.0
G0 X39.117 Y26.493
G0 Z1.0
G0 X39.031 Y27.493
G0 Z0.0
G0 X28.936 Y27.493
G0 Z1.0
G0 X20.591 Y27.493
G0 Z0.0
G0 X17.571 Y28.493
G0 Z1.0
G0 X36.436 Y28.493
G0 Z0.0
G0 X38.832 Y28.493
G0 Z1.0
G0 X38.499 Y29.493
G0 Z0.0
G0 X16.026 Y29.493
G0 Z1.0
G0 X14.943 Y30.493
G0 Z0.0
G0 X21.436 Y30.493
G0 Z1.0
G0 X37.977 Y30.493
G0 Z0.0
G0 X37.216 Y31.493
G0 Z1.0
G0 X28.936 Y31.493
G0 Z0.0
G0 X14.077 Y31.493
G0 Z1.0
G0 X13.143 Y32.493
G0 Z0.0
G0 X36.091 Y32.493
G0 Z1.0
G0 X34.239 Y33.493
G0 Z0.0
G0 X13.936 Y33.493
G0 Z1.0
G0 X11.958 Y33.493
G0 Z0.0
G0 X10.284 Y34.493
G0 Z1.0
G0 X20.832 Y34.493
G0 Z0.0
G0 X17.870 Y35.493
G0 Z1.0
G0 X2.243 Y35.493
G0 Z0.0
G0 X1.656 Y34.493
G0 Z1.0
G0 X3.083 Y34.493
G0 Z0.0
G0 X1.701 Y34.023
G0 Z1.0
G0 X1.431 Y25.143
G0 Z0.0
G0 X1.161 Y16.263
G0 Z1.0
G0 X0.892 Y7.382
G0 Z0.0
G0 X7.838 Y-0.941
G0 Z1.0
G0 X12.122 Y-4.507
G0 Z0.0
G0 X15.351 Y-6.214
G0 Z1.0
G0 X17.623 Y-9.334
G0 Z0.0
G0 X18.845 Y-13.814
G0 Z1.0
G0 X18.563 Y-18.505
G0 Z0.0
G0 X18.743 Y-18.507
G0 Z1.0
G0 X19.295 Y-17.507
G0 Z0.0
G0 X18.756 Y-17.507
G0 Z1.0
G0 X18.878 Y-16.507
G0 Z0.0
G0 X19.833 Y-16.507
G0 Z1.0
G0 X20.314 Y-15.507
G0 Z0.0
G0 X18.931 Y-15.507
G0 Z1.0
G0 X18.906 Y-14.507
G0 Z0.0
G0 X20.757 Y-14.507
G0 Z1.0
G0 X21.168 Y-13.507
G0 Z0.0
G0 X18.814 Y-13.507
G0 Z1.0
G0 X18.653 Y-12.507
G0 Z0.0
G0 X21.533 Y-12.507
G0 Z1.0
G0 X21.850 Y-11.507
G0 Z0.0
G0 X18.419 Y-11.507
G0 Z1.0
G0 X18.106 Y-10.507
G0 Z0.0
G0 X22.142 Y-10.507
G0 Z1.0
G0 X22.364 Y-9.507
G0 Z0.0
G0 X21.436 Y-9.507
G0 Z1.0
G0 X17.701 Y-9.507
G0 Z0.0
G0 X17.187 Y-8.507
G0 Z1.0
G0 X22.530 Y-8.507
G0 Z0.0
G0 X22.632 Y-7.507
G0 Z1.0
G0 X16.536 Y-7.507
G0 Z0.0
G0 X15.664 Y-6.507
G0 Z1.0
G0 X22.662 Y-6.507
G0 Z0.0
G0 X22.607 Y-5.507
G0 Z1.0
G0 X21.436 Y-5.507
G0 Z0.0
G0 X14.430 Y-5.507
G0 Z1.0
G0 X12.122 Y-4.507
G0 Z0.0
G0 X22.440 Y-4.507
G0 Z1.0
G0 X22.141 Y-3.507
G0 Z0.0
G0 X10.635 Y-3.507
G0 Z1.0
G0 X9.452 Y-2.507
G0 Z0.0
G0 X13.936 Y-2.507
G0 Z1.0
G0 X21.683 Y-2.507
G0 Z0.0
G0 X20.985 Y-1.507
G0 Z1.0
G0 X8.397 Y-1.507
G0 Z0.0
G0 X7.416 Y-0.507
G0 Z1.0
G0 X19.961 Y-0.507
G0 Z0.0
G0 X18.311 Y0.493
G0 Z1.0
G0 X6.498 Y0.493
G0 Z0.0
G0 X5.593 Y1.493
G0 Z1.0
G0 X9.859 Y1.493
G0 Z0.0
G0 X7.461 Y2.493
G0 Z1.0
G0 X4.723 Y2.493
G0 Z0.0
G0 X3.882 Y3.493
G0 Z1.0
G0 X5.759 Y3.493
G0 Z0.0
G0 X4.331 Y4.493
G0 Z1.0
G0 X3.058 Y4.493
G0 Z0.0
G0 X2.264 Y5.493
G0 Z1.0
G0 X3.072 Y5.493
G0 Z0.0
G0 X1.906 Y6.493
G0 Z1.0
G0 X1.501 Y6.493
G0 Z0.0
G0 X1.141 Y6.980
G0 Z1.0
G0 X1.499 Y6.644
G0 Z0.0
G0 X0.971 Y3.647
G0 Z1.0
G0 X1.374 Y0.177
G0 Z0.0
G0 X2.334 Y5.621
G0 Z1.0
G0 X3.160 Y4.546
G0 Z0.0
G0 X1.960 Y-2.263
G0 Z1.0
G0 X2.653 Y-4.092
G0 Z0.0
G0 X3.112 Y-1.484
G0 Z1.0
G0 X3.988 Y3.482
G0 Z0.0
G0 X4.817 Y2.430
G0 Z1.0
G0 X3.411 Y-5.548
G0 Z0.0
G0 X4.231 Y-6.655
G0 Z1.0
G0 X5.653 Y1.410
G0 Z0.0
G0 X6.493 Y0.420
G0 Z1.0
G0 X5.100 Y-7.486
G0 Z0.0
G0 X6.011 Y-8.081
G0 Z1.0
G0 X7.052 Y-2.178
G0 Z0.0
G0 X7.339 Y-0.546
G0 Z1.0
G0 X8.194 Y-1.450
G0 Z0.0
G0 X6.957 Y-8.473
G0 Z1.0
G0 X7.938 Y-8.668
G0 Z0.0
G0 X9.061 Y-2.301
G0 Z1.0
G0 X9.939 Y-3.080
G0 Z0.0
G0 X8.942 Y-8.731
G0 Z1.0
G0 X9.790 Y-9.681
G0 Z0.0
G0 X10.834 Y-3.764
G0 Z1.0
G0 X11.747 Y-4.335
G0 Z0.0
G0 X10.673 Y-10.433
G0 Z1.0
G0 X10.550 Y-11.134
G0 Z0.0
G0 X11.263 Y-12.847
G0 Z1.0
G0 X12.688 Y-4.766
G0 Z0.0
G0 X13.627 Y-5.202
G0 Z1.0
G0 X11.948 Y-14.722
G0 Z0.0
G0 X12.594 Y-16.810
G0 Z1.0
G0 X14.536 Y-5.805
G0 Z0.0
G0 X15.418 Y-6.558
G0 Z1.0
G0 X14.613 Y-11.127
G0 Z0.0
G0 X13.162 Y-19.351
G0 Z1.0
G0 X13.321 Y-22.436
G0 Z0.0
G0 X13.639 Y-22.410
G0 Z1.0
G0 X14.295 Y-18.687
G0 Z0.0
G0 X16.275 Y-7.456
G0 Z1.0
G0 X17.097 Y-8.555
G0 Z0.0
G0 X14.756 Y-21.829
G0 Z1.0
G0 X15.917 Y-21.006
G0 Z0.0
G0 X17.865 Y-9.956
G0 Z1.0
G0 X18.541 Y-11.882
G0 Z0.0
G0 X17.100 Y-20.058
G0 Z1.0
G0 X18.298 Y-19.020
G0 Z0.0
G0 X18.901 Y-15.601
G0 Z1.0
G0 X18.370 Y-18.957
G0 Z0.0
G0 X26.120 Y-22.506
G0 Z1.0
G0 X23.296 Y-27.157
G0 Z0.0
G0 X20.006 Y-29.856
G0 Z1.0
G0 X16.079 Y-31.161
G0 Z0.0
G0 X10.978 Y-31.130
G0 Z1.0
G0 X7.744 Y-30.807
G0 Z0.0
G0 X1.185 Y-33.601
G0 Z1.0
G0 X-2.356 Y-33.623
G0 Z0.0
G0 X-5.593 Y-31.982
G0 Z1.0
G0 X-8.757 Y-28.311
G0 Z0.0
G0 X-9.896 Y-27.225
G0 Z1.0
G0 X-17.665 Y-24.498
G0 Z0.0
G0 X-21.530 Y-21.702
G0 Z1.0
G0 X-23.814 Y-18.228
G0 Z0.0
G0 X-24.768 Y-13.819
G0 Z1.0
G0 X-25.061 Y-9.871
G0 Z0.0
G0 X-26.477 Y-9.304
G0 Z1.0
G0 X-31.278 Y-9.829
G0 Z0.0
G0 X-31.707 Y-11.420
G0 Z1.0
G0 X-29.941 Y-9.656
G0 Z0.0
G0 X-28.318 Y-9.447
G0 Z1.0
G0 X-30.507 Y-11.637
G0 Z0.0
G0 X-31.917 Y-13.046
G0 Z1.0
G0 X-31.932 Y-14.475
G0 Z0.0
G0 X-26.763 Y-9.307
G0 Z1.0
G0 X-25.516 Y-9.474
G0 Z0.0
G0 X-31.793 Y-15.751
G0 Z1.0
G0 X-31.531 Y-16.903
G0 Z0.0
G0 X-24.894 Y-10.266
G0 Z1.0
G0 X-24.778 Y-11.564
G0 Z0.0
G0 X-27.679 Y-14.465
G0 Z1.0
G0 X-31.160 Y-17.947
G0 Z0.0
G0 X-30.695 Y-18.895
G0 Z1.0
G0 X-24.788 Y-12.989
G0 Z0.0
G0 X-24.734 Y-14.349
G0 Z1.0
G0 X-30.146 Y-19.761
G0 Z0.0
G0 X-29.517 Y-20.546
G0 Z1.0
G0 X-24.577 Y-15.606
G0 Z0.0
G0 X-24.324 Y-16.767
G0 Z1.0
G0 X-24.850 Y-17.294
G0 Z0.0
G0 X-28.821 Y-21.264
G0 Z1.0
G0 X-28.061 Y-21.918
G0 Z0.0
G0 X-23.977 Y-17.834
G0 Z1.0
G0 X-23.550 Y-18.821
G0 Z0.0
G0 X-27.240 Y-22.512
G0 Z1.0
G0 X-26.362 Y-23.048
G0 Z0.0
G0 X-23.048 Y-19.734
G0 Z1.0
G0 X-22.478 Y-20.578
G0 Z0.0
G0 X-25.430 Y-23.530
G0 Z1.0
G0 X-24.447 Y-23.959
G0 Z0.0
G0 X-21.843 Y-21.358
G0 Z1.0
G0 X-21.149 Y-22.077
G0 Z0.0
G0 X-23.413 Y-24.341
G0 Z1.0
G0 X-22.334 Y-24.677
G0 Z0.0
G0 X-20.398 Y-22.740
G0 Z1.0
G0 X-19.590 Y-23.347
G0 Z0.0
G0 X-21.288 Y-25.045
G0 Z1.0
G0 X-20.429 Y-25.600
G0 Z0.0
G0 X-18.731 Y-23.902
G0 Z1.0
G0 X-17.827 Y-24.412
G0 Z0.0
G0 X-19.681 Y-26.266
G0 Z1.0
G0 X-19.003 Y-27.002
G0 Z0.0
G0 X-16.870 Y-24.869
G0 Z1.0
G0 X-15.887 Y-25.301
G0 Z0.0
G0 X-16.365 Y-25.779
G0 Z1.0
G0 X-18.352 Y-27.766
G0 Z0.0
G0 X-17.706 Y-28.534
G0 Z1.0
G0 X-14.861 Y-25.689
G0 Z0.0
G0 X-13.800 Y-26.042
G0 Z1.0
G0 X-17.062 Y-29.304
G0 Z0.0
G0 X-16.390 Y-30.046
G0 Z1.0
G0 X-12.716 Y-26.373
G0 Z0.0
G0 X-11.621 Y-26.692
G0 Z1.0
G0 X-13.537 Y-28.607
G0 Z0.0
G0 X-15.670 Y-30.740
G0 Z1.0
G0 X-14.882 Y-31.367
G0 Z0.0
G0 X-10.527 Y-27.012
G0 Z1.0
G0 X-9.494 Y-27.393
G0 Z0.0
G0 X-14.003 Y-31.902
G0 Z1.0
G0 X-12.996 Y-32.309
G0 Z0.0
G0 X-8.850 Y-28.164
G0 Z1.0
G0 X-8.287 Y-29.014
G0 Z0.0
G0 X-10.708 Y-31.436
G0 Z1.0
G0 X-11.803 Y-32.530
G0 Z0.0
G0 X-10.357 Y-32.499
G0 Z1.0
G0 X-7.686 Y-29.828
G0 Z0.0
G0 X-7.043 Y-30.599
G0 Z1.0
G0 X-9.146 Y-32.701
G0 Z0.0
G0 X-8.415 Y-33.385
G0 Z1.0
G0 X-6.349 Y-31.319
G0 Z0.0
G0 X-5.595 Y-31.980
G0 Z1.0
G0 X-7.702 Y-34.087
G0 Z0.0
G0 X-6.986 Y-34.784
G0 Z1.0
G0 X-4.772 Y-32.571
G0 Z0.0
G0 X-3.867 Y-33.080
G0 Z1.0
G0 X-6.239 Y-35.452
G0 Z0.0
G0 X-5.456 Y-36.083
G0 Z1.0
G0 X-2.855 Y-33.482
G0 Z0.0
G0 X-1.703 Y-33.744
G0 Z1.0
G0 X-4.631 Y-36.673
G0 Z0.0
G0 X-3.763 Y-37.218
G0 Z1.0
G0 X-0.355 Y-33.810
G0 Z0.0
G0 X1.293 Y-33.577
G0 Z1.0
G0 X-2.815 Y-37.684
G0 Z0.0
G0 X-1.791 Y-38.075
G0 Z1.0
G0 X2.373 Y-33.911
G0 Z0.0
G0 X3.425 Y-32.859
G0 Z1.0
G0 X6.198 Y-31.500
G0 Z0.0
G0 X-0.653 Y-38.351
G0 Z1.0
G0 X0.619 Y-38.493
G0 Z0.0
G0 X8.437 Y-30.675
G0 Z1.0
G0 X9.630 Y-30.896
G0 Z0.0
G0 X2.085 Y-38.442
G0 Z1.0
G0 X3.869 Y-38.071
G0 Z0.0
G0 X5.202 Y-36.739
G0 Z1.0
G0 X10.829 Y-31.112
G0 Z0.0
G0 X12.088 Y-31.264
G0 Z1.0
G0 X6.295 Y-37.060
G0 Z0.0
G0 X10.704 Y-34.065
G0 Z1.0
G0 X13.439 Y-31.330
G0 Z0.0
G0 X14.890 Y-31.293
G0 Z1.0
G0 X12.626 Y-33.557
G0 Z0.0
G0 X12.170 Y-34.013
G0 Z1.0
G0 X13.260 Y-34.337
G0 Z0.0
G0 X16.506 Y-31.091
G0 Z1.0
G0 X18.443 Y-30.568
G0 Z0.0
G0 X14.278 Y-34.734
G0 Z1.0
G0 X18.105 Y-35.752
G0 Z0.0
G0 X20.415 Y-34.972
G0 Z1.0
G0 X22.535 Y-32.307
G0 Z0.0
G0 X22.728 Y-31.940
G0 Z1.0
G0 X19.040 Y-35.629
G0 Z0.0
G0 X17.541 Y-35.713
G0 Z1.0
G0 X32.072 Y-21.183
G0 Z0.0
G0 X32.623 Y-20.631
G0 Z1.0
G0 X35.758 Y-16.083
G0 Z0.0
G0 X16.351 Y-35.489
G0 Z1.0
G0 X15.289 Y-35.137
G0 Z0.0
G0 X20.051 Y-30.375
G0 Z1.0
G0 X21.765 Y-28.661
G0 Z0.0
G0 X23.409 Y-27.017
G0 Z1.0
G0 X36.862 Y-13.563
G0 Z0.0
G0 X37.065 Y-11.946
G0 Z1.0
G0 X25.793 Y-23.219
G0 Z0.0
G0 X26.819 Y-20.779
G0 Z1.0
G0 X29.243 Y-18.354
G0 Z0.0
G0 X36.726 Y-10.872
G0 Z1.0
G0 X35.983 Y-10.200
G0 Z0.0
G0 X33.839 Y-12.344
G0 Z1.0
G0 X27.554 Y-18.629
G0 Z0.0
G0 X28.201 Y-16.569
G0 Z1.0
G0 X34.931 Y-9.838
G0 Z0.0
G0 X31.394 Y-9.906
G0 Z1.0
G0 X29.878 Y-11.705
G0 Z0.0
G0 X29.586 Y-12.355
G0 Z1.0
G0 X32.212 Y-9.728
G0 Z0.0
G0 X33.665 Y-9.690
G0 Z1.0
G0 X28.826 Y-14.529
G0 Z0.0
G0 X28.482 Y-15.653
G0 Z1.0
G0 X29.359 Y-11.311
G0 Z0.0
G0 X29.057 Y-9.596
G0 Z1.0
G0 X28.016 Y-9.450
G0 Z0.0
G0 X28.147 Y-10.190
G0 Z1.0
G0 X28.836 Y-14.101
G0 Z0.0
G0 X28.252 Y-16.548
G0 Z1.0
G0 X26.988 Y-9.376
G0 Z0.0
G0 X25.965 Y-9.338
G0 Z1.0
G0 X27.617 Y-18.704
G0 Z0.0
G0 X26.938 Y-20.607
G0 Z1.0
G0 X26.495 Y-18.097
G0 Z0.0
G0 X24.949 Y-9.335
G0 Z1.0
G0 X23.936 Y-9.331
G0 Z0.0
G0 X24.207 Y-10.885
G0 Z1.0
G0 X26.219 Y-22.294
G0 Z0.0
G0 X25.467 Y-23.786
G0 Z1.0
G0 X22.920 Y-9.343
G0 Z0.0
G0 X22.426 Y-9.353
G0 Z1.0
G0 X22.103 Y-10.471
G0 Z0.0
G0 X24.684 Y-25.106
G0 Z1.0
G0 X23.874 Y-26.269
G0 Z0.0
G0 X22.555 Y-18.792
G0 Z1.0
G0 X21.460 Y-12.582
G0 Z0.0
G0 X20.770 Y-14.425
G0 Z1.0
G0 X23.039 Y-27.291
G0 Z0.0
G0 X22.180 Y-28.184
G0 Z1.0
G0 X20.034 Y-16.011
G0 Z0.0
G0 X19.259 Y-17.373
G0 Z1.0
G0 X20.903 Y-26.699
G0 Z0.0
G0 X21.301 Y-28.956
G0 Z1.0
G0 X20.402 Y-29.616
G0 Z0.0
G0 X18.616 Y-19.486
G0 Z1.0
G0 X18.453 Y-18.564
G0 Z0.0
G0 X17.614 Y-19.564
G0 Z1.0
G0 X19.485 Y-30.171
G0 Z0.0
G0 X18.550 Y-30.628
G0 Z1.0
G0 X16.751 Y-20.424
G0 Z0.0
G0 X15.864 Y-21.152
G0 Z1.0
G0 X16.964 Y-27.393
G0 Z0.0
G0 X17.598 Y-30.992
G0 Z1.0
G0 X16.631 Y-31.266
G0 Z0.0
G0 X14.957 Y-21.768
G0 Z1.0
G0 X14.033 Y-22.288
G0 Z0.0
G0 X15.649 Y-31.456
G0 Z1.0
G0 X14.653 Y-31.564
G0 Z0.0
G0 X13.094 Y-22.720
G0 Z1.0
G0 X12.140 Y-23.071
G0 Z0.0
G0 X13.025 Y-28.088
G0 Z1.0
G0 X13.642 Y-31.588
G0 Z0.0
G0 X12.616 Y-31.529
G0 Z1.0
G0 X11.173 Y-23.347
G0 Z0.0
G0 X10.197 Y-23.555
G0 Z1.0
G0 X11.574 Y-31.380
G0 Z0.0
G0 X10.522 Y-31.170
G0 Z1.0
G0 X9.205 Y-23.702
G0 Z0.0
G0 X8.206 Y-23.792
G0 Z1.0
G0 X9.086 Y-28.783
G0 Z0.0
G0 X9.453 Y-30.868
G0 Z1.0
G0 X8.365 Y-30.453
G0 Z0.0
G0 X7.197 Y-23.831
G0 Z1.0
G0 X6.180 Y-23.823
G0 Z0.0
G0 X7.398 Y-30.728
G0 Z1.0
G0 X6.488 Y-31.330
G0 Z0.0
G0 X5.156 Y-23.773
G0 Z1.0
G0 X4.122 Y-23.667
G0 Z0.0
G0 X5.146 Y-29.477
G0 Z1.0
G0 X5.570 Y-31.878
G0 Z0.0
G0 X4.640 Y-32.367
G0 Z1.0
G0 X3.082 Y-23.526
G0 Z0.0
G0 X2.037 Y-23.363
G0 Z1.0
G0 X3.699 Y-32.789
G0 Z0.0
G0 X2.746 Y-33.138
G0 Z1.0
G0 X0.992 Y-23.192
G0 Z0.0
G0 X-0.054 Y-23.021
G0 Z1.0
G0 X1.207 Y-30.172
G0 Z0.0
G0 X1.777 Y-33.405
G0 Z1.0
G0 X0.793 Y-33.583
G0 Z0.0
G0 X-1.080 Y-22.959
G0 Z1.0
G0 X-2.136 Y-22.729
G0 Z0.0
G0 X-0.208 Y-33.662
G0 Z1.0
G0 X-1.229 Y-33.631
G0 Z0.0
G0 X-3.174 Y-22.600
G0 Z1.0
G0 X-4.212 Y-22.475
G0 Z0.0
G0 X-2.732 Y-30.866
G0 Z1.0
G0 X-2.273 Y-33.468
G0 Z0.0
G0 X-3.346 Y-33.146
G0 Z1.0
G0 X-5.019 Y-23.654
G0 Z0.0
G0 X-5.249 Y-22.350
G0 Z1.0
G0 X-6.284 Y-22.225
G0 Z0.0
G0 X-4.452 Y-32.632
G0 Z1.0
G0 X-5.604 Y-31.857
G0 Z0.0
G0 X-7.326 Y-22.089
G0 Z1.0
G0 X-8.368 Y-21.938
G0 Z0.0
G0 X-6.808 Y-30.787
G0 Z1.0
G0 X-8.097 Y-29.234
G0 Z0.0
G0 X-8.959 Y-24.348
G0 Z1.0
G0 X-9.414 Y-21.767
G0 Z0.0
G0 X-10.468 Y-21.532
G0 Z1.0
G0 X-9.475 Y-27.178
G0 Z0.0
G0 X-10.533 Y-26.935
G0 Z1.0
G0 X-11.540 Y-21.226
G0 Z0.0
G0 X-12.623 Y-20.833
G0 Z1.0
G0 X-11.595 Y-26.670
G0 Z0.0
G0 X-12.663 Y-26.374
G0 Z1.0
G0 X-12.898 Y-25.043
G0 Z0.0
G0 X-13.743 Y-20.251
G0 Z1.0
G0 X-14.906 Y-19.414
G0 Z0.0
G0 X-13.741 Y-26.021
G0 Z1.0
G0 X-14.826 Y-25.626
G0 Z0.0
G0 X-16.141 Y-18.169
G0 Z1.0
G0 X-19.318 Y-12.861
G0 Z0.0
G0 X-21.024 Y-9.698
G0 Z1.0
G0 X-22.844 Y-9.278
G0 Z0.0
G0 X-24.676 Y-10.254
G0 Z1.0
G0 X-24.917 Y-14.463
G0 Z0.0
G0 X-24.655 Y-15.950
G0 Z1.0
G0 X-22.981 Y-19.689
G0 Z0.0
G0 X-23.063 Y-19.220
G0 Z1.0
G0 X-24.651 Y-10.219
G0 Z0.0
G0 X-23.754 Y-9.542
G0 Z1.0
G0 X-21.683 Y-21.288
G0 Z0.0
G0 X-20.467 Y-22.428
G0 Z1.0
G0 X-22.787 Y-9.269
G0 Z0.0
G0 X-21.761 Y-9.333
G0 Z1.0
G0 X-21.411 Y-11.313
G0 Z0.0
G0 X-19.296 Y-23.312
G0 Z1.0
G0 X-18.151 Y-24.042
G0 Z0.0
G0 X-19.124 Y-18.525
G0 Z1.0
G0 X-20.605 Y-10.128
G0 Z0.0
G0 X-18.986 Y-13.548
G0 Z1.0
G0 X-17.028 Y-24.654
G0 Z0.0
G0 X-15.923 Y-25.174
G0 Z1.0
G0 X-17.484 Y-16.311
G0 Z0.0
G0 X-17.014 Y-17.033
G0 Z1.0
G0 X-16.838 Y-17.507
G0 Z0.0
G0 X-17.225 Y-13.093
G0 Z1.0
G0 X-16.101 Y-8.762
G0 Z0.0
G0 X-13.825 Y-5.555
G0 Z1.0
G0 X-11.020 Y-3.937
G0 Z0.0
G0 X-7.810 Y-2.022
G0 Z1.0
G0 X-1.761 Y4.383
G0 Z0.0
G0 X-0.189 Y6.492
G0 Z1.0
G0 X-0.556 Y6.493
G0 Z0.0
G0 X-1.706 Y5.493
G0 Z1.0
G0 X-0.904 Y5.493
G0 Z0.0
G0 X-1.670 Y4.495
G0 Z1.0
G0 X-3.030 Y4.493
G0 Z0.0
G0 X-4.550 Y3.493
G0 Z1.0
G0 X-2.504 Y3.493
G0 Z0.0
G0 X-3.339 Y2.493
G0 Z1.0
G0 X-6.457 Y2.493
G0 Z0.0
G0 X-9.545 Y1.493
G0 Z1.0
G0 X-4.251 Y1.493
G0 Z0.0
G0 X-5.163 Y0.493
G0 Z1.0
G0 X-17.993 Y0.493
G0 Z0.0
G0 X-19.129 Y-0.507
G0 Z1.0
G0 X-6.147 Y-0.507
G0 Z0.0
G0 X-7.207 Y-1.507
G0 Z1.0
G0 X-8.564 Y-1.507
G0 Z0.0
G0 X-19.880 Y-1.507
G0 Z1.0
G0 X-20.369 Y-2.507
G0 Z0.0
G0 X-16.064 Y-2.507
G0 Z1.0
G0 X-8.407 Y-2.507
G0 Z0.0
G0 X-9.917 Y-3.506
G0 Z1.0
G0 X-20.689 Y-3.507
G0 Z0.0
G0 X-20.856 Y-4.507
G0 Z1.0
G0 X-12.391 Y-4.507
G0 Z0.0
G0 X-13.769 Y-5.507
G0 Z1.0
G0 X-20.920 Y-5.507
G0 Z0.0
G0 X-20.897 Y-6.507
G0 Z1.0
G0 X-16.064 Y-6.507
G0 Z0.0
G0 X-14.723 Y-6.507
G0 Z1.0
G0 X-15.425 Y-7.507
G0 Z0.0
G0 X-20.793 Y-7.507
G0 Z1.0
G0 X-20.615 Y-8.507
G0 Z0.0
G0 X-15.978 Y-8.507
G0 Z1.0
G0 X-16.412 Y-9.507
G0 Z0.0
G0 X-20.384 Y-9.507
G0 Z1.0
G0 X-20.100 Y-10.507
G0 Z0.0
G0 X-16.747 Y-10.507
G0 Z1.0
G0 X-16.993 Y-11.507
G0 Z0.0
G0 X-19.782 Y-11.507
G0 Z1.0
G0 X-19.403 Y-12.507
G0 Z0.0
G0 X-17.160 Y-12.507
G0 Z1.0
G0 X-17.252 Y-13.507
G0 Z0.0
G0 X-18.988 Y-13.507
G0 Z1.0
G0 X-18.538 Y-14.507
G0 Z0.0
G0 X-17.269 Y-14.507
G0 Z1.0
G0 X-17.210 Y-15.507
G0 Z0.0
G0 X-18.046 Y-15.507
G0 Z1.0
G0 X-17.503 Y-16.507
G0 Z0.0
G0 X-17.065 Y-16.507
G0 Z1.0
G0 X-16.990 Y-16.879
G0 Z0.0
G0 X-17.266 Y-12.259
G0 Z1.0
G0 X-16.002 Y-8.341
G0 Z0.0
G0 X-13.397 Y-5.217
G0 Z1.0
G0 X-10.857 Y-3.975
G0 Z0.0
G0 X-8.357 Y-2.651
G0 Z1.0
G0 X-2.128 Y3.737
G0 Z0.0
G0 X0.656 Y7.498
G0 Z1.0
G0 X0.871 Y6.289
G0 Z0.0
G0 X0.441 Y2.966
G0 Z1.0
G0 X-0.145 Y6.290
G0 Z0.0
G0 X-0.966 Y5.185
G0 Z1.0
G0 X-0.162 Y0.625
G0 Z0.0
G0 X-0.833 Y-1.326
G0 Z1.0
G0 X-1.796 Y4.136
G0 Z0.0
G0 X-2.634 Y3.130
G0 Z1.0
G0 X-1.562 Y-2.949
G0 Z0.0
G0 X-2.340 Y-4.299
G0 Z1.0
G0 X-3.479 Y2.166
G0 Z0.0
G0 X-4.329 Y1.223
G0 Z1.0
G0 X-4.002 Y-0.627
G0 Z0.0
G0 X-3.159 Y-5.409
G0 Z1.0
G0 X-4.018 Y-6.298
G0 Z0.0
G0 X-5.185 Y0.321
G0 Z1.0
G0 X-6.045 Y-0.551
G0 Z0.0
G0 X-4.911 Y-6.990
G0 Z1.0
G0 X-5.840 Y-7.479
G0 Z0.0
G0 X-6.913 Y-1.395
G0 Z1.0
G0 X-7.791 Y-2.179
G0 Z0.0
G0 X-6.795 Y-7.824
G0 Z1.0
G0 X-7.644 Y-8.767
G0 Z0.0
G0 X-8.680 Y-2.895
G0 Z1.0
G0 X-9.586 Y-3.511
G0 Z0.0
G0 X-8.415 Y-10.156
G0 Z1.0
G0 X-9.156 Y-11.714
G0 Z0.0
G0 X-9.594 Y-9.229
G0 Z1.0
G0 X-10.527 Y-3.933
G0 Z0.0
G0 X-11.513 Y-4.105
G0 Z1.0
G0 X-9.868 Y-13.433
G0 Z0.0
G0 X-11.399 Y-19.197
G0 Z1.0
G0 X-11.412 Y-21.125
G0 Z0.0
G0 X-14.090 Y-19.810
G0 Z1.0
G0 X-16.858 Y-17.411
G0 Z0.0
G0 X-17.312 Y-12.751
G0 Z1.0
G0 X-17.228 Y-12.009
G0 Z0.0
G0 X-16.122 Y-18.277
G0 Z1.0
G0 X-14.946 Y-19.194
G0 Z0.0
G0 X-15.185 Y-17.831
G0 Z1.0
G0 X-16.619 Y-9.698
G0 Z0.0
G0 X-15.881 Y-8.122
G0 Z1.0
G0 X-13.782 Y-20.029
G0 Z0.0
G0 X-12.641 Y-20.741
G0 Z1.0
G0 X-15.074 Y-6.941
G0 Z0.0
G0 X-14.229 Y-5.975
G0 Z1.0
G0 X-13.533 Y-9.924
G0 Z0.0
G0 X-11.556 Y-21.133
G0 Z1.0
G0 X-11.246 Y-20.592
G0 Z0.0
G0 X-11.161 Y-17.615
G0 Z1.0
G0 X-11.246 Y-17.136
G0 Z0.0
G0 X-13.353 Y-5.185
G0 Z1.0
G0 X-12.448 Y-4.561
G0 Z0.0
G0 X-10.545 Y-15.349
G0 Z1.0
G0 X-10.418 Y-14.988
G0 Z0.0
M00
G0 X-7.688 Y-15.954
G0 Z1.0
G0 X-7.283 Y-15.507
G0 Z0.0
G0 X-5.966 Y-15.507
G0 Z1.0
G0 X-5.313 Y-16.007
G0 Z0.0
G0 X-7.694 Y-16.007
G0 Z1.0
G0 X-7.592 Y-16.507
G0 Z0.0
G0 X-4.969 Y-16.507
G0 Z1.0
G0 X-4.850 Y-17.007
G0 Z0.0
G0 X-7.083 Y-17.007
G0 Z1.0
G0 X-5.398 Y-17.387
G0 Z0.0
G0 X-4.913 Y-17.158
G0 Z1.0
G0 X-3.136 Y-18.349
G0 Z0.0
G0 X-2.620 Y-18.007
G0 Z1.0
G0 X-1.732 Y-18.007
G0 Z0.0
G0 X-0.937 Y-18.507
G0 Z1.0
G0 X-3.215 Y-18.507
G0 Z0.0
G0 X-3.188 Y-19.007
G0 Z1.0
G0 X-0.556 Y-19.007
G0 Z0.0
G0 X-0.611 Y-19.864
G0 Z1.0
G0 X-2.409 Y-19.732
G0 Z0.0
G0 X-2.753 Y-19.507
G0 Z1.0
G0 X-1.064 Y-19.507
G0 Z0.0
G0 X-0.390 Y-19.507
G0 Z1.0
G0 X1.591 Y-19.382
G0 Z0.0
G0 X2.775 Y-18.010
G0 Z1.0
G0 X3.980 Y-18.007
G0 Z0.0
G0 X2.467 Y-18.175
G0 Z1.0
G0 X1.596 Y-19.507
G0 Z0.0
G0 X3.876 Y-19.507
G0 Z1.0
G0 X4.358 Y-19.007
G0 Z0.0
G0 X1.732 Y-19.007
G0 Z1.0
G0 X2.090 Y-18.507
G0 Z0.0
G0 X4.438 Y-18.507
G0 Z1.0
G0 X4.340 Y-18.294
G0 Z0.0
G0 X6.335 Y-17.046
G0 Z1.0
G0 X6.833 Y-15.795
G0 Z0.0
G0 X7.181 Y-15.507
G0 Z1.0
G0 X8.875 Y-15.507
G0 Z0.0
G0 X9.131 Y-16.007
G0 Z1.0
G0 X6.643 Y-16.007
G0 Z0.0
G0 X6.337 Y-16.507
G0 Z1.0
G0 X8.949 Y-16.507
G0 Z0.0
G0 X8.345 Y-17.007
G0 Z1.0
G0 X6.436 Y-17.007
G0 Z0.0
G0 X6.317 Y-17.007
G0 Z1.0

G0 X0.0 Y0.0
M30
