(STITCH_COUNT:575)
(EXTENTS_LEFT:-9.534)
(EXTENTS_TOP:-11.623)
(EXTENTS_RIGHT:9.534)
(EXTENTS_BOTTOM:11.623)
(EXTENTS_WIDTH:19.068)
(EXTENTS_HEIGHT:23.246)

G90 (use absolute coordinates)
G21 (coordinates will be specified in millimeters)
G0 X0.0 Y0.0

G0 X0.000 Y0.000
G0 Z0.0
G0 X-2.233 Y1.274
G0 Z1.0
G0 X-4.169 Y1.556
G0 Z0.0
G0 X-6.411 Y1.896
G0 Z1.0
G0 X-8.136 Y1.619
G0 Z0.0
G0 X-9.173 Y1.159
G0 Z1.0
G0 X-8.763 Y1.370
G0 Z0.0
G0 X-8.895 Y1.501
G0 Z1.0
G0 X-8.647 Y1.748
G0 Z0.0
G0 X-8.416 Y1.517
G0 Z1.0
G0 X-8.051 Y1.647
G0 Z0.0
G0 X-8.302 Y1.898
G0 Z1.0
G0 X-8.067 Y2.158
G0 Z0.0
G0 X-7.661 Y1.752
G0 Z1.0
G0 X-7.245 Y1.831
G0 Z0.0
G0 X-7.736 Y2.322
G0 Z1.0
G0 X-7.369 Y2.451
G0 Z0.0
G0 X-6.800 Y1.882
G0 Z1.0
G0 X-6.322 Y1.898
G0 Z0.0
G0 X-6.971 Y2.547
G0 Z1.0
G0 X-6.540 Y2.611
G0 Z0.0
G0 X-6.445 Y2.517
G0 Z1.0
G0 X-5.796 Y1.867
G0 Z0.0
G0 X-5.204 Y1.770
G0 Z1.0
G0 X-5.579 Y2.145
G0 Z0.0
G0 X-6.079 Y2.646
G0 Z1.0
G0 X-5.577 Y2.638
G0 Z0.0
G0 X-4.713 Y1.774
G0 Z1.0
G0 X-4.577 Y1.639
G0 Z0.0
G0 X-3.957 Y1.513
G0 Z1.0
G0 X-4.914 Y2.471
G0 Z0.0
G0 X-2.395 Y1.398
G0 Z1.0
G0 X-1.763 Y1.253
G0 Z0.0
G0 X-2.232 Y1.274
G0 Z1.0
G0 X-2.341 Y1.383
G0 Z0.0
G0 X-3.069 Y1.616
G0 Z1.0
G0 X-2.751 Y1.297
G0 Z0.0
G0 X-3.335 Y1.387
G0 Z1.0
G0 X-3.980 Y2.031
G0 Z0.0
G0 X-4.271 Y2.178
G0 Z1.0
G0 X-4.213 Y2.293
G0 Z0.0
G0 X-5.274 Y3.174
G0 Z1.0
G0 X-5.765 Y4.234
G0 Z0.0
G0 X-5.675 Y5.495
G0 Z1.0
G0 X-5.303 Y7.516
G0 Z0.0
G0 X-5.553 Y8.799
G0 Z1.0
G0 X-6.303 Y9.860
G0 Z0.0
G0 X-7.112 Y10.401
G0 Z1.0
G0 X-6.815 Y10.311
G0 Z0.0
G0 X-5.849 Y9.337
G0 Z1.0
G0 X-5.355 Y8.142
G0 Z0.0
G0 X-5.397 Y6.634
G0 Z1.0
G0 X-5.797 Y4.534
G0 Z0.0
G0 X-5.481 Y3.484
G0 Z1.0
G0 X-5.397 Y3.346
G0 Z0.0
G0 X-5.793 Y4.433
G0 Z1.0
G0 X-5.727 Y5.273
G0 Z0.0
G0 X-4.780 Y2.674
G0 Z1.0
G0 X-4.287 Y2.340
G0 Z0.0
G0 X-5.306 Y5.142
G0 Z1.0
G0 X-5.576 Y5.883
G0 Z0.0
G0 X-5.426 Y6.495
G0 Z1.0
G0 X-4.678 Y4.439
G0 Z0.0
G0 X-3.828 Y2.103
G0 Z1.0
G0 X-3.391 Y1.927
G0 Z0.0
G0 X-4.050 Y3.737
G0 Z1.0
G0 X-5.247 Y7.026
G0 Z0.0
G0 X-5.317 Y7.219
G0 Z1.0
G0 X-5.466 Y8.578
G0 Z0.0
G0 X-6.130 Y9.686
G0 Z1.0
G0 X-6.267 Y9.830
G0 Z0.0
G0 X-6.390 Y10.166
G0 Z1.0
G0 X-5.954 Y9.991
G0 Z0.0
G0 X-5.816 Y9.613
G0 Z1.0
G0 X-4.619 Y6.323
G0 Z0.0
G0 X-3.422 Y3.034
G0 Z1.0
G0 X-2.969 Y1.792
G0 Z0.0
G0 X-1.309 Y1.502
G0 Z1.0
G0 X-1.762 Y1.544
G0 Z0.0
G0 X-1.861 Y1.817
G0 Z1.0
G0 X-2.375 Y2.208
G0 Z0.0
G0 X-2.165 Y1.629
G0 Z1.0
G0 X-2.558 Y1.686
G0 Z0.0
G0 X-2.793 Y2.331
G0 Z1.0
G0 X-2.989 Y2.870
G0 Z0.0
G0 X-3.710 Y4.254
G0 Z1.0
G0 X-3.903 Y5.378
G0 Z0.0
G0 X-3.990 Y5.620
G0 Z1.0
G0 X-5.187 Y8.910
G0 Z0.0
G0 X-5.504 Y9.778
G0 Z1.0
G0 X-5.037 Y9.518
G0 Z0.0
G0 X-4.560 Y8.207
G0 Z1.0
G0 X-3.861 Y6.288
G0 Z0.0
G0 X-3.719 Y6.923
G0 Z1.0
G0 X-3.931 Y7.505
G0 Z0.0
G0 X-4.453 Y8.939
G0 Z1.0
G0 X-3.685 Y7.851
G0 Z0.0
G0 X-3.534 Y7.436
G0 Z1.0
G0 X-3.480 Y7.568
G0 Z0.0
G0 X-3.553 Y7.669
G0 Z1.0
G0 X-3.433 Y7.755
G0 Z0.0
G0 X-3.370 Y7.873
G0 Z1.0
G0 X-4.012 Y8.638
G0 Z0.0
G0 X-4.385 Y9.207
G0 Z1.0
G0 X-4.087 Y9.270
G0 Z0.0
G0 X-3.181 Y8.192
G0 Z1.0
G0 X-2.968 Y8.483
G0 Z0.0
G0 X-3.230 Y8.796
G0 Z1.0
G0 X-3.727 Y9.388
G0 Z0.0
G0 X-3.396 Y9.538
G0 Z1.0
G0 X-2.737 Y8.752
G0 Z0.0
G0 X-2.487 Y8.998
G0 Z1.0
G0 X-3.089 Y9.716
G0 Z0.0
G0 X-2.805 Y9.922
G0 Z1.0
G0 X-2.215 Y9.219
G0 Z0.0
G0 X-1.926 Y9.419
G0 Z1.0
G0 X-2.158 Y9.696
G0 Z0.0
G0 X-2.532 Y10.141
G0 Z1.0
G0 X-2.267 Y10.370
G0 Z0.0
G0 X-1.615 Y9.594
G0 Z1.0
G0 X-1.283 Y9.742
G0 Z0.0
G0 X-2.003 Y10.600
G0 Z1.0
G0 X-1.737 Y10.827
G0 Z0.0
G0 X-0.930 Y9.866
G0 Z1.0
G0 X-0.549 Y9.956
G0 Z0.0
G0 X-1.085 Y10.596
G0 Z1.0
G0 X-1.458 Y11.039
G0 Z0.0
G0 X-1.168 Y11.239
G0 Z1.0
G0 X-0.255 Y10.150
G0 Z0.0
G0 X-0.138 Y10.011
G0 Z1.0
G0 X0.311 Y10.020
G0 Z0.0
G0 X-0.855 Y11.411
G0 Z1.0
G0 X-0.509 Y11.542
G0 Z0.0
G0 X0.809 Y9.971
G0 Z1.0
G0 X1.380 Y9.835
G0 Z0.0
G0 X-0.013 Y11.496
G0 Z1.0
G0 X-0.120 Y11.623
G0 Z0.0
G0 X0.350 Y11.607
G0 Z1.0
G0 X0.818 Y11.051
G0 Z0.0
G0 X2.091 Y9.532
G0 Z1.0
G0 X3.261 Y8.566
G0 Z0.0
G0 X3.779 Y7.782
G0 Z1.0
G0 X3.889 Y7.935
G0 Z0.0
G0 X1.648 Y10.605
G0 Z1.0
G0 X0.986 Y11.394
G0 Z0.0
G0 X2.286 Y10.390
G0 Z1.0
G0 X2.479 Y10.160
G0 Z0.0
G0 X4.100 Y8.228
G0 Z1.0
G0 X4.310 Y8.521
G0 Z0.0
G0 X3.495 Y9.494
G0 Z1.0
G0 X4.116 Y9.297
G0 Z0.0
G0 X4.521 Y8.815
G0 Z1.0
G0 X4.854 Y9.278
G0 Z0.0
G0 X4.604 Y9.261
G0 Z1.0
G0 X4.732 Y9.108
G0 Z0.0
G0 X4.847 Y9.268
G0 Z1.0
G0 X4.956 Y9.190
G0 Z0.0
G0 X6.037 Y9.909
G0 Z1.0
G0 X7.467 Y10.446
G0 Z0.0
G0 X6.447 Y9.759
G0 Z1.0
G0 X5.833 Y8.705
G0 Z0.0
G0 X5.736 Y7.490
G0 Z1.0
G0 X5.985 Y5.482
G0 Z0.0
G0 X5.918 Y4.923
G0 Z1.0
G0 X5.443 Y3.617
G0 Z0.0
G0 X4.736 Y2.698
G0 Z1.0
G0 X5.041 Y3.537
G0 Z0.0
G0 X5.975 Y6.103
G0 Z1.0
G0 X5.861 Y6.812
G0 Z0.0
G0 X5.011 Y4.479
G0 Z1.0
G0 X4.204 Y2.259
G0 Z0.0
G0 X3.727 Y1.973
G0 Z1.0
G0 X3.785 Y2.132
G0 Z0.0
G0 X4.982 Y5.421
G0 Z1.0
G0 X5.736 Y7.492
G0 Z0.0
G0 X5.834 Y8.707
G0 Z1.0
G0 X6.449 Y9.760
G0 Z0.0
G0 X7.467 Y10.446
G0 Z1.0
G0 X7.148 Y10.349
G0 Z0.0
G0 X6.623 Y9.929
G0 Z1.0
G0 X6.722 Y10.202
G0 Z0.0
G0 X5.086 Y9.335
G0 Z1.0
G0 X4.001 Y7.841
G0 Z0.0
G0 X3.879 Y7.507
G0 Z1.0
G0 X4.066 Y7.000
G0 Z0.0
G0 X4.768 Y8.928
G0 Z1.0
G0 X5.366 Y9.546
G0 Z0.0
G0 X4.893 Y8.247
G0 Z1.0
G0 X4.209 Y6.370
G0 Z0.0
G0 X4.260 Y5.484
G0 Z1.0
G0 X4.923 Y7.305
G0 Z0.0
G0 X5.834 Y9.809
G0 Z1.0
G0 X6.285 Y10.025
G0 Z0.0
G0 X6.149 Y9.652
G0 Z1.0
G0 X4.952 Y6.363
G0 Z0.0
G0 X3.755 Y3.074
G0 Z1.0
G0 X3.285 Y1.783
G0 Z0.0
G0 X2.867 Y1.658
G0 Z1.0
G0 X3.306 Y2.863
G0 Z0.0
G0 X2.701 Y2.225
G0 Z1.0
G0 X2.499 Y1.669
G0 Z0.0
G0 X2.081 Y1.546
G0 Z1.0
G0 X2.191 Y1.845
G0 Z0.0
G0 X1.720 Y1.577
G0 Z1.0
G0 X2.000 Y1.543
G0 Z0.0
G0 X3.757 Y1.790
G0 Z1.0
G0 X5.401 Y2.734
G0 Z0.0
G0 X6.373 Y2.797
G0 Z1.0
G0 X7.234 Y2.395
G0 Z0.0
G0 X9.189 Y1.483
G0 Z1.0
G0 X9.528 Y1.204
G0 Z0.0
G0 X7.838 Y1.839
G0 Z1.0
G0 X7.450 Y1.909
G0 Z0.0
G0 X6.293 Y2.448
G0 Z1.0
G0 X5.586 Y2.778
G0 Z0.0
G0 X5.086 Y2.625
G0 Z1.0
G0 X5.352 Y2.500
G0 Z0.0
G0 X6.490 Y1.970
G0 Z1.0
G0 X5.782 Y1.914
G0 Z0.0
G0 X4.716 Y2.411
G0 Z1.0
G0 X4.393 Y2.175
G0 Z0.0
G0 X5.194 Y1.802
G0 Z1.0
G0 X4.682 Y1.654
G0 Z0.0
G0 X4.057 Y1.946
G0 Z1.0
G0 X3.648 Y1.751
G0 Z0.0
G0 X4.188 Y1.498
G0 Z1.0
G0 X3.620 Y1.377
G0 Z0.0
G0 X3.071 Y1.633
G0 Z1.0
G0 X2.283 Y1.614
G0 Z0.0
G0 X2.879 Y1.337
G0 Z1.0
G0 X1.768 Y1.433
G0 Z0.0
G0 X1.894 Y1.410
G0 Z1.0
G0 X1.768 Y1.433
G0 Z0.0
M00
G0 X1.739 Y1.356
G0 Z1.0
G0 X3.029 Y1.176
G0 Z0.0
G0 X6.125 Y1.737
G0 Z1.0
G0 X7.969 Y1.661
G0 Z0.0
G0 X9.184 Y1.242
G0 Z1.0
G0 X9.534 Y0.893
G0 Z0.0
G0 X8.988 Y0.944
G0 Z1.0
G0 X8.369 Y1.564
G0 Z0.0
G0 X7.735 Y1.702
G0 Z1.0
G0 X8.543 Y0.894
G0 Z0.0
G0 X8.160 Y0.782
G0 Z1.0
G0 X7.181 Y1.761
G0 Z0.0
G0 X6.676 Y1.771
G0 Z1.0
G0 X7.786 Y0.660
G0 Z0.0
G0 X7.520 Y0.433
G0 Z1.0
G0 X6.920 Y1.032
G0 Z0.0
G0 X6.207 Y1.745
G0 Z1.0
G0 X5.762 Y1.696
G0 Z0.0
G0 X6.054 Y1.403
G0 Z1.0
G0 X7.227 Y0.229
G0 Z0.0
G0 X6.939 Y0.022
G0 Z1.0
G0 X5.334 Y1.628
G0 Z0.0
G0 X4.921 Y1.545
G0 Z1.0
G0 X6.651 Y-0.184
G0 Z0.0
G0 X6.345 Y-0.373
G0 Z1.0
G0 X5.930 Y0.042
G0 Z0.0
G0 X4.519 Y1.453
G0 Z1.0
G0 X4.118 Y1.358
G0 Z0.0
G0 X5.064 Y0.413
G0 Z1.0
G0 X6.013 Y-0.537
G0 Z0.0
G0 X5.644 Y-0.662
G0 Z1.0
G0 X4.198 Y0.784
G0 Z0.0
G0 X3.713 Y1.269
G0 Z1.0
G0 X3.286 Y1.201
G0 Z0.0
G0 X5.232 Y-0.746
G0 Z1.0
G0 X4.764 Y-0.773
G0 Z0.0
G0 X2.822 Y1.169
G0 Z1.0
G0 X2.283 Y1.214
G0 Z0.0
G0 X4.074 Y-0.577
G0 Z1.0
G0 X4.220 Y-0.724
G0 Z0.0
G0 X2.917 Y-0.217
G0 Z1.0
G0 X1.913 Y0.752
G0 Z0.0
G0 X1.543 Y1.432
G0 Z1.0
G0 X3.208 Y-0.206
G0 Z0.0
G0 X3.531 Y-0.530
G0 Z1.0
G0 X2.359 Y0.225
G0 Z0.0
G0 X1.566 Y1.379
G0 Z1.0
G0 X1.549 Y1.667
G0 Z0.0
G0 X2.227 Y3.503
G0 Z1.0
G0 X2.367 Y5.463
G0 Z0.0
G0 X1.975 Y7.337
G0 Z1.0
G0 X1.061 Y9.047
G0 Z0.0
G0 X0.351 Y9.871
G0 Z1.0
G0 X0.466 Y9.752
G0 Z0.0
G0 X1.608 Y8.170
G0 Z1.0
G0 X2.251 Y6.349
G0 Z0.0
G0 X2.358 Y4.397
G0 Z1.0
G0 X1.933 Y2.507
G0 Z0.0
G0 X1.762 Y2.097
G0 Z1.0
G0 X1.864 Y1.818
G0 Z0.0
G0 X2.171 Y1.997
G0 Z1.0
G0 X1.959 Y2.578
G0 Z0.0
G0 X2.134 Y3.122
G0 Z1.0
G0 X2.410 Y2.363
G0 Z0.0
G0 X2.468 Y2.203
G0 Z1.0
G0 X2.755 Y2.439
G0 Z0.0
G0 X2.276 Y3.754
G0 Z1.0
G0 X2.369 Y4.522
G0 Z0.0
G0 X2.469 Y4.247
G0 Z1.0
G0 X3.026 Y2.717
G0 Z0.0
G0 X3.801 Y3.995
G0 Z1.0
G0 X4.092 Y5.511
G0 Z0.0
G0 X3.827 Y7.113
G0 Z1.0
G0 X3.216 Y8.336
G0 Z0.0
G0 X3.844 Y6.610
G0 Z1.0
G0 X4.071 Y5.988
G0 Z0.0
G0 X4.054 Y5.010
G0 Z1.0
G0 X3.216 Y7.313
G0 Z0.0
G0 X2.583 Y9.053
G0 Z1.0
G0 X2.078 Y9.415
G0 Z0.0
G0 X2.588 Y8.015
G0 Z1.0
G0 X3.785 Y4.726
G0 Z0.0
G0 X3.921 Y4.353
G0 Z1.0
G0 X3.736 Y3.838
G0 Z0.0
G0 X3.157 Y5.428
G0 Z1.0
G0 X1.960 Y8.718
G0 Z0.0
G0 X1.625 Y9.636
G0 Z1.0
G0 X1.204 Y9.771
G0 Z0.0
G0 X1.332 Y9.420
G0 Z1.0
G0 X2.529 Y6.131
G0 Z0.0
G0 X3.522 Y3.403
G0 Z1.0
G0 X3.284 Y3.034
G0 Z0.0
G0 X3.098 Y3.544
G0 Z1.0
G0 X2.359 Y5.574
G0 Z0.0
G0 X1.970 Y7.348
G0 Z1.0
G0 X1.132 Y8.946
G0 Z0.0
G0 X0.804 Y9.845
G0 Z1.0
G0 X0.351 Y9.871
G0 Z0.0
G0 X-0.078 Y9.848
G0 Z1.0
G0 X-1.212 Y8.229
G0 Z0.0
G0 X-1.845 Y6.398
G0 Z1.0
G0 X-1.947 Y4.393
G0 Z0.0
G0 X-1.497 Y2.456
G0 Z1.0
G0 X-1.071 Y1.546
G0 Z0.0
G0 X-1.244 Y1.620
G0 Z1.0
G0 X-1.189 Y1.770
G0 Z0.0
G0 X-1.836 Y3.622
G0 Z1.0
G0 X-1.949 Y5.640
G0 Z0.0
G0 X-1.520 Y7.536
G0 Z1.0
G0 X-0.571 Y9.258
G0 Z0.0
G0 X-0.078 Y9.848
G0 Z1.0
G0 X-0.839 Y8.873
G0 Z0.0
G0 X-0.498 Y9.809
G0 Z1.0
G0 X-1.782 Y9.338
G0 Z0.0
G0 X-2.811 Y8.357
G0 Z1.0
G0 X-2.981 Y8.105
G0 Z0.0
G0 X-3.691 Y6.154
G0 Z1.0
G0 X-3.713 Y5.072
G0 Z0.0
G0 X-2.883 Y7.352
G0 Z1.0
G0 X-2.308 Y8.932
G0 Z0.0
G0 X-1.789 Y9.335
G0 Z1.0
G0 X-2.853 Y6.410
G0 Z0.0
G0 X-3.588 Y4.392
G0 Z1.0
G0 X-3.407 Y3.865
G0 Z0.0
G0 X-2.823 Y5.468
G0 Z1.0
G0 X-1.626 Y8.757
G0 Z0.0
G0 X-1.329 Y9.574
G0 Z1.0
G0 X-0.902 Y9.723
G0 Z0.0
G0 X-1.596 Y7.816
G0 Z1.0
G0 X-2.794 Y4.526
G0 Z0.0
G0 X-3.196 Y3.421
G0 Z1.0
G0 X-2.962 Y3.040
G0 Z0.0
G0 X-2.764 Y3.584
G0 Z1.0
G0 X-1.924 Y5.891
G0 Z0.0
G0 X-1.969 Y4.746
G0 Z1.0
G0 X-2.710 Y2.711
G0 Z0.0
G0 X-2.440 Y2.428
G0 Z1.0
G0 X-1.890 Y3.939
G0 Z0.0
G0 X-1.759 Y3.277
G0 Z1.0
G0 X-2.158 Y2.178
G0 Z0.0
G0 X-1.864 Y1.964
G0 Z1.0
G0 X-1.591 Y2.714
G0 Z0.0
G0 X-1.401 Y2.213
G0 Z1.0
G0 X-1.559 Y1.777
G0 Z0.0
G0 X-1.111 Y1.564
G0 Z1.0
G0 X-1.187 Y1.386
G0 Z0.0
G0 X-2.477 Y1.124
G0 Z1.0
G0 X-4.879 Y1.565
G0 Z0.0
G0 X-6.933 Y1.707
G0 Z1.0
G0 X-8.539 Y1.332
G0 Z0.0
G0 X-9.534 Y0.749
G0 Z1.0
G0 X-9.287 Y0.830
G0 Z0.0
G0 X-9.021 Y1.092
G0 Z1.0
G0 X-8.628 Y0.909
G0 Z0.0
G0 X-7.541 Y0.609
G0 Z1.0
G0 X-6.698 Y0.009
G0 Z0.0
G0 X-4.944 Y-0.809
G0 Z1.0
G0 X-4.117 Y-0.808
G0 Z0.0
G0 X-7.124 Y0.594
G0 Z1.0
G0 X-8.627 Y1.295
G0 Z0.0
G0 X-8.173 Y1.469
G0 Z1.0
G0 X-6.182 Y0.541
G0 Z0.0
G0 X-3.545 Y-0.689
G0 Z1.0
G0 X-3.087 Y-0.516
G0 Z0.0
G0 X-5.241 Y0.488
G0 Z1.0
G0 X-7.645 Y1.609
G0 Z0.0
G0 X-7.014 Y1.701
G0 Z1.0
G0 X-4.300 Y0.436
G0 Z0.0
G0 X-2.697 Y-0.312
G0 Z1.0
G0 X-2.360 Y-0.083
G0 Z0.0
G0 X-3.359 Y0.383
G0 Z1.0
G0 X-6.230 Y1.721
G0 Z0.0
G0 X-5.180 Y1.619
G0 Z1.0
G0 X-2.418 Y0.331
G0 Z0.0
G0 X-2.065 Y0.166
G0 Z1.0
G0 X-1.806 Y0.432
G0 Z0.0
G0 X-3.635 Y1.284
G0 Z1.0
G0 X-2.465 Y1.124
G0 Z0.0
G0 X-1.579 Y0.712
G0 Z1.0
G0 X-1.381 Y1.006
G0 Z0.0
G0 X-1.786 Y1.194
G0 Z1.0
G0 X-1.287 Y1.348
G0 Z0.0
G0 X-1.187 Y1.386
G0 Z1.0
M00
G0 X-0.878 Y5.381
G0 Z0.0
G0 X-0.818 Y5.126
G0 Z1.0
G0 X-0.759 Y4.870
G0 Z0.0
G0 X-0.818 Y5.126
G0 Z1.0
G0 X-0.878 Y5.381
G0 Z0.0
G0 X-0.452 Y3.553
G0 Z1.0
G0 X-0.027 Y1.726
G0 Z0.0
G0 X-0.086 Y1.981
G0 Z1.0
G0 X-0.146 Y2.237
G0 Z0.0
G0 X-0.086 Y1.981
G0 Z1.0
G0 X-0.027 Y1.726
G0 Z0.0
G0 X0.200 Y4.004
G0 Z1.0
G0 X0.204 Y3.741
G0 Z0.0
G0 X0.209 Y3.479
G0 Z1.0
G0 X0.204 Y3.741
G0 Z0.0
G0 X0.200 Y4.004
G0 Z1.0
G0 X0.238 Y1.635
G0 Z0.0
G0 X0.234 Y1.897
G0 Z1.0
G0 X0.230 Y2.160
G0 Z0.0
G0 X0.234 Y1.897
G0 Z1.0
G0 X0.238 Y1.635
G0 Z0.0
G0 X1.182 Y5.292
G0 Z1.0
G0 X1.145 Y5.032
G0 Z0.0
G0 X1.108 Y4.772
G0 Z1.0
G0 X1.145 Y5.032
G0 Z0.0
G0 X1.182 Y5.292
G0 Z1.0
G0 X0.932 Y3.535
G0 Z0.0
G0 X0.682 Y1.778
G0 Z1.0
G0 X0.681 Y1.520
G0 Z0.0
G0 X1.347 Y1.517
G0 Z1.0
G0 X1.484 Y1.208
G0 Z0.0
G0 X-0.987 Y1.208
G0 Z1.0
G0 X-1.238 Y0.858
G0 Z0.0
G0 X1.309 Y0.858
G0 Z1.0
G0 X1.649 Y0.858
G0 Z0.0
G0 X1.881 Y0.508
G0 Z1.0
G0 X0.434 Y0.508
G0 Z0.0
G0 X-1.518 Y0.508
G0 Z1.0
G0 X-1.685 Y0.158
G0 Z0.0
G0 X-0.441 Y0.158
G0 Z1.0
G0 X2.059 Y0.158
G0 Z0.0
G0 X2.092 Y-0.193
G0 Z1.0
G0 X-1.316 Y-0.193
G0 Z0.0
G0 X-1.691 Y-0.193
G0 Z1.0
G0 X-1.571 Y-0.543
G0 Z0.0
G0 X1.309 Y-0.543
G0 Z1.0
G0 X1.989 Y-0.543
G0 Z0.0
G0 X1.750 Y-0.893
G0 Z1.0
G0 X0.434 Y-0.893
G0 Z0.0
G0 X-1.330 Y-0.893
G0 Z1.0
G0 X-1.022 Y-1.242
G0 Z0.0
G0 X-0.441 Y-1.243
G0 Z1.0
G0 X1.388 Y-1.243
G0 Z0.0
G0 X1.005 Y-1.592
G0 Z1.0
G0 X-0.734 Y-1.593
G0 Z0.0
G0 X-0.541 Y-1.943
G0 Z1.0
G0 X0.717 Y-1.943
G0 Z0.0
G0 X0.550 Y-2.293
G0 Z1.0
G0 X0.434 Y-2.293
G0 Z0.0
G0 X-0.429 Y-2.293
G0 Z1.0
G0 X-0.224 Y-2.643
G0 Z0.0
G0 X0.333 Y-2.643
G0 Z1.0
G0 X0.042 Y-2.761
G0 Z0.0
G0 X0.021 Y-2.885
G0 Z1.0
G0 X0.149 Y-5.798
G0 Z0.0
G0 X0.277 Y-8.711
G0 Z1.0
G0 X0.406 Y-11.623
G0 Z0.0
G0 X0.394 Y-11.361
G0 Z1.0
G0 X0.383 Y-11.098
G0 Z0.0
G0 X0.394 Y-11.361
G0 Z1.0
G0 X0.406 Y-11.623
G0 Z0.0
G0 X-1.168 Y-8.346
G0 Z1.0
G0 X-1.018 Y-8.561
G0 Z0.0
G0 X-0.867 Y-8.776
G0 Z1.0
G0 X-1.018 Y-8.561
G0 Z0.0
G0 X-1.168 Y-8.346
G0 Z1.0
G0 X0.257 Y-10.375
G0 Z0.0
G0 X0.106 Y-10.160
G0 Z1.0
G0 X-0.045 Y-9.946
G0 Z0.0
G0 X0.106 Y-10.160
G0 Z1.0
G0 X0.257 Y-10.375
G0 Z0.0
G0 X-1.219 Y-8.178
G0 Z1.0
G0 X-0.855 Y-7.654
G0 Z0.0
G0 X-0.846 Y-7.538
G0 Z1.0
G0 X-1.866 Y-6.518
G0 Z0.0
G0 X-2.048 Y-6.336
G0 Z1.0
G0 X-2.655 Y-6.224
G0 Z0.0
G0 X-0.957 Y-7.922
G0 Z1.0
G0 X-1.206 Y-8.168
G0 Z0.0
G0 X-3.195 Y-6.179
G0 Z1.0
G0 X-4.022 Y-6.410
G0 Z0.0
G0 X-4.253 Y-6.607
G0 Z1.0
G0 X-3.170 Y-7.194
G0 Z0.0
G0 X-3.982 Y-6.381
G0 Z1.0
G0 X-3.639 Y-6.230
G0 Z0.0
G0 X-2.150 Y-7.719
G0 Z1.0
G0 X-1.237 Y-8.189
G0 Z0.0
M00
G0 X-1.289 Y-8.291
G0 Z1.0
G0 X-1.445 Y-8.993
G0 Z0.0
G0 X-1.914 Y-9.212
G0 Z1.0
G0 X-2.610 Y-9.536
G0 Z0.0
G0 X-3.116 Y-9.386
G0 Z1.0
G0 X-1.277 Y-8.529
G0 Z0.0
G0 X-1.265 Y-8.304
G0 Z1.0
G0 X-1.436 Y-8.217
G0 Z0.0
G0 X-3.459 Y-9.160
G0 Z1.0
G0 X-3.716 Y-8.893
G0 Z0.0
G0 X-3.151 Y-8.630
G0 Z1.0
G0 X-1.833 Y-8.015
G0 Z0.0
G0 X-2.231 Y-7.814
G0 Z1.0
G0 X-2.506 Y-7.943
G0 Z0.0
G0 X-3.909 Y-8.597
G0 Z1.0
G0 X-4.064 Y-8.283
G0 Z0.0
G0 X-2.628 Y-7.614
G0 Z1.0
G0 X-3.025 Y-7.413
G0 Z0.0
G0 X-4.181 Y-7.952
G0 Z1.0
G0 X-4.271 Y-7.608
G0 Z0.0
G0 X-3.743 Y-7.361
G0 Z1.0
G0 X-3.422 Y-7.212
G0 Z0.0
G0 X-3.820 Y-7.010
G0 Z1.0
G0 X-4.348 Y-7.257
G0 Z0.0
G0 X-4.424 Y-6.906
G0 Z1.0
G0 X-4.217 Y-6.810
G0 Z0.0
G0 X-4.473 Y-6.680
G0 Z1.0
M00
G0 X1.018 Y5.434
G0 Z0.0
G0 X1.276 Y5.408
G0 Z1.0
G0 X0.859 Y5.572
G0 Z0.0
G0 X0.792 Y6.108
G0 Z1.0
G0 X1.578 Y6.108
G0 Z0.0
G0 X1.601 Y5.758
G0 Z1.0
G0 X0.767 Y5.758
G0 Z0.0
G0 X0.907 Y5.511
G0 Z1.0
G0 X0.383 Y4.796
G0 Z0.0
G0 X-0.000 Y4.780
G0 Z1.0
G0 X-0.114 Y4.358
G0 Z0.0
G0 X0.507 Y4.358
G0 Z1.0
G0 X0.465 Y4.708
G0 Z0.0
G0 X-0.067 Y4.708
G0 Z1.0
G0 X-0.757 Y5.611
G0 Z0.0
G0 X-1.133 Y5.636
G0 Z1.0
G0 X-1.301 Y6.163
G0 Z0.0
G0 X-1.158 Y6.458
G0 Z1.0
G0 X-0.710 Y6.458
G0 Z0.0
G0 X-0.559 Y6.108
G0 Z1.0
G0 X-1.306 Y6.108
G0 Z0.0
G0 X-1.234 Y5.758
G0 Z1.0
G0 X-0.635 Y5.758
G0 Z0.0
G0 X-0.757 Y5.611
G0 Z1.0
G0 X0.000 Y0.000
G0 Z0.0

G0 X0.0 Y0.0
M30
