(STITCH_COUNT:1119)
(EXTENTS_LEFT:-48.962)
(EXTENTS_TOP:-28.978)
(EXTENTS_RIGHT:48.962)
(EXTENTS_BOTTOM:28.978)
(EXTENTS_WIDTH:97.924)
(EXTENTS_HEIGHT:57.955)

G90 (use absolute coordinates)
G21 (coordinates will be specified in millimeters)
G0 X0.0 Y0.0

G0 X27.492 Y-13.481
G0 Z0.0
G0 X27.498 Y-12.731
G0 Z1.0
G0 X27.504 Y-11.981
G0 Z0.0
G0 X27.498 Y-12.731
G0 Z1.0
G0 X27.492 Y-13.481
G0 Z0.0
G0 X27.513 Y-10.905
G0 Z1.0
G0 X23.302 Y-14.322
G0 Z0.0
G0 X19.213 Y-15.387
G0 Z1.0
G0 X15.338 Y-15.796
G0 Z0.0
G0 X14.338 Y-16.480
G0 Z1.0
G0 X13.782 Y-17.397
G0 Z0.0
G0 X14.200 Y-22.190
G0 Z1.0
G0 X15.280 Y-23.058
G0 Z0.0
G0 X14.869 Y-18.369
G0 Z1.0
G0 X14.668 Y-16.069
G0 Z0.0
G0 X15.639 Y-15.720
G0 Z1.0
G0 X16.018 Y-20.025
G0 Z0.0
G0 X16.326 Y-23.548
G0 Z1.0
G0 X17.353 Y-23.810
G0 Z0.0
G0 X17.167 Y-21.681
G0 Z1.0
G0 X16.624 Y-15.472
G0 Z0.0
G0 X17.627 Y-15.462
G0 Z1.0
G0 X17.706 Y-16.364
G0 Z0.0
G0 X18.316 Y-23.337
G0 Z1.0
G0 X18.364 Y-23.886
G0 Z0.0
G0 X19.360 Y-23.799
G0 Z1.0
G0 X18.854 Y-18.020
G0 Z0.0
G0 X18.628 Y-15.432
G0 Z1.0
G0 X19.624 Y-15.345
G0 Z0.0
G0 X20.003 Y-19.676
G0 Z1.0
G0 X20.344 Y-23.576
G0 Z0.0
G0 X21.318 Y-23.231
G0 Z1.0
G0 X21.152 Y-21.333
G0 Z0.0
G0 X20.615 Y-15.194
G0 Z1.0
G0 X21.598 Y-14.964
G0 Z0.0
G0 X21.690 Y-16.015
G0 Z1.0
G0 X22.280 Y-22.751
G0 Z0.0
G0 X23.231 Y-22.157
G0 Z1.0
G0 X22.839 Y-17.672
G0 Z0.0
G0 X22.574 Y-14.639
G0 Z1.0
G0 X23.538 Y-14.193
G0 Z0.0
G0 X23.988 Y-19.328
G0 Z1.0
G0 X24.177 Y-21.491
G0 Z0.0
G0 X25.107 Y-20.647
G0 Z1.0
G0 X24.526 Y-14.011
G0 Z0.0
G0 X24.491 Y-13.610
G0 Z1.0
G0 X25.422 Y-12.776
G0 Z0.0
G0 X25.675 Y-15.667
G0 Z1.0
G0 X25.997 Y-19.344
G0 Z0.0
G0 X26.813 Y-17.199
G0 Z1.0
G0 X26.348 Y-11.890
G0 Z0.0
G0 X27.283 Y-11.092
G0 Z1.0
G0 X27.362 Y-12.006
G0 Z0.0
G0 X27.492 Y-13.481
G0 Z1.0
G0 X27.513 Y-13.370
G0 Z0.0
G0 X27.837 Y-13.392
G0 Z1.0
G0 X27.961 Y-10.233
G0 Z0.0
G0 X28.284 Y-10.336
G0 Z1.0
G0 X27.958 Y-10.336
G0 Z0.0
G0 X27.921 Y-11.336
G0 Z1.0
G0 X29.188 Y-11.336
G0 Z0.0
G0 X29.913 Y-12.336
G0 Z1.0
G0 X29.012 Y-12.336
G0 Z0.0
G0 X27.882 Y-12.336
G0 Z1.0
G0 X27.292 Y-18.777
G0 Z0.0
G0 X28.085 Y-19.931
G0 Z1.0
G0 X29.193 Y-20.372
G0 Z0.0
G0 X27.537 Y-19.446
G0 Z1.0
G0 X27.489 Y-19.338
G0 Z0.0
G0 X30.680 Y-19.336
G0 Z1.0
G0 X31.205 Y-18.336
G0 Z0.0
G0 X27.215 Y-18.336
G0 Z1.0
G0 X27.226 Y-17.336
G0 Z0.0
G0 X31.370 Y-17.336
G0 Z1.0
G0 X31.341 Y-16.336
G0 Z0.0
G0 X29.012 Y-16.336
G0 Z1.0
G0 X27.386 Y-16.336
G0 Z0.0
G0 X27.603 Y-15.336
G0 Z1.0
G0 X30.762 Y-15.336
G0 Z0.0
G0 X31.170 Y-15.336
G0 Z1.0
G0 X30.866 Y-14.336
G0 Z0.0
G0 X27.754 Y-14.336
G0 Z1.0
G0 X27.840 Y-13.336
G0 Z0.0
G0 X30.461 Y-13.336
G0 Z1.0
G0 X30.384 Y-13.160
G0 Z0.0
G0 X30.562 Y-13.065
G0 Z1.0
G0 X29.530 Y-10.906
G0 Z0.0
G0 X30.871 Y-10.992
G0 Z1.0
G0 X29.753 Y-11.422
G0 Z0.0
G0 X30.171 Y-12.333
G0 Z1.0
G0 X32.422 Y-11.469
G0 Z0.0
G0 X35.562 Y-13.609
G0 Z1.0
G0 X36.897 Y-15.748
G0 Z0.0
G0 X36.924 Y-17.627
G0 Z1.0
G0 X35.494 Y-18.343
G0 Z0.0
G0 X34.391 Y-18.211
G0 Z1.0
G0 X36.978 Y-17.218
G0 Z0.0
G0 X36.992 Y-16.142
G0 Z1.0
G0 X33.188 Y-17.602
G0 Z0.0
G0 X32.362 Y-16.848
G0 Z1.0
G0 X33.728 Y-16.324
G0 Z0.0
G0 X36.704 Y-15.181
G0 Z1.0
G0 X36.178 Y-14.312
G0 Z0.0
G0 X35.003 Y-14.763
G0 Z1.0
G0 X31.811 Y-15.988
G0 Z0.0
G0 X31.466 Y-15.049
G0 Z1.0
G0 X35.471 Y-13.512
G0 Z0.0
G0 X34.630 Y-12.764
G0 Z1.0
G0 X31.101 Y-14.118
G0 Z0.0
G0 X30.646 Y-13.222
G0 Z1.0
G0 X32.294 Y-12.589
G0 Z0.0
G0 X33.625 Y-12.078
G0 Z1.0
G0 X32.540 Y-11.514
G0 Z0.0
G0 X29.197 Y-10.383
G0 Z1.0
G0 X29.348 Y-9.528
G0 Z0.0
G0 X30.432 Y-9.140
G0 Z1.0
G0 X30.163 Y-10.667
G0 Z0.0
G0 X31.127 Y-10.957
G0 Z1.0
G0 X31.514 Y-8.764
G0 Z0.0
G0 X32.590 Y-8.420
G0 Z1.0
G0 X32.212 Y-10.561
G0 Z0.0
G0 X32.082 Y-11.299
G0 Z1.0
G0 X33.026 Y-11.702
G0 Z0.0
G0 X33.653 Y-8.149
G0 Z1.0
G0 X34.698 Y-7.981
G0 Z0.0
G0 X33.958 Y-12.176
G0 Z1.0
G0 X34.875 Y-12.736
G0 Z0.0
G0 X35.471 Y-9.358
G0 Z1.0
G0 X35.717 Y-7.960
G0 Z0.0
G0 X36.700 Y-8.145
G0 Z1.0
G0 X36.151 Y-11.255
G0 Z0.0
G0 X35.774 Y-13.395
G0 Z1.0
G0 X36.699 Y-13.908
G0 Z0.0
G0 X36.832 Y-13.152
G0 Z1.0
G0 X37.654 Y-8.492
G0 Z0.0
G0 X40.004 Y-10.338
G0 Z1.0
G0 X40.488 Y-12.943
G0 Z0.0
G0 X39.793 Y-13.637
G0 Z1.0
G0 X40.091 Y-11.950
G0 Z0.0
G0 X40.263 Y-10.975
G0 Z1.0
G0 X39.472 Y-9.700
G0 Z0.0
G0 X39.410 Y-10.053
G0 Z1.0
G0 X38.694 Y-14.113
G0 Z0.0
G0 X37.677 Y-14.121
G0 Z1.0
G0 X38.580 Y-8.999
G0 Z0.0
G0 X37.905 Y-8.602
G0 Z1.0
G0 X37.955 Y-8.499
G0 Z0.0
G0 X39.731 Y-8.556
G0 Z1.0
G0 X40.597 Y-6.911
G0 Z0.0
G0 X40.573 Y-6.319
G0 Z1.0
G0 X39.638 Y-4.699
G0 Z0.0
G0 X38.097 Y-4.029
G0 Z1.0
G0 X40.316 Y-7.873
G0 Z0.0
G0 X39.616 Y-8.661
G0 Z1.0
G0 X39.288 Y-8.092
G0 Z0.0
G0 X37.096 Y-4.296
G0 Z1.0
G0 X36.336 Y-4.979
G0 Z0.0
G0 X37.547 Y-7.077
G0 Z1.0
G0 X38.468 Y-8.672
G0 Z0.0
G0 X36.928 Y-8.005
G0 Z1.0
G0 X35.806 Y-6.061
G0 Z0.0
G0 X35.680 Y-5.844
G0 Z1.0
G0 X34.459 Y-7.545
G0 Z0.0
G0 X35.561 Y-7.637
G0 Z1.0
G0 X35.051 Y-6.755
G0 Z0.0
G0 X34.459 Y-7.545
G0 Z1.0
G0 X30.873 Y-8.777
G0 Z0.0
G0 X27.288 Y-10.010
G0 Z1.0
G0 X27.289 Y-10.598
G0 Z0.0
G0 X24.773 Y-13.117
G0 Z1.0
G0 X22.976 Y-14.182
G0 Z0.0
G0 X18.775 Y-15.295
G0 Z1.0
G0 X14.229 Y-14.884
G0 Z0.0
G0 X10.730 Y-13.150
G0 Z1.0
G0 X8.096 Y-9.933
G0 Z0.0
G0 X8.080 Y-6.273
G0 Z1.0
G0 X8.286 Y-5.564
G0 Z0.0
G0 X10.237 Y-3.611
G0 Z1.0
G0 X11.745 Y-3.517
G0 Z0.0
G0 X7.916 Y-7.347
G0 Z1.0
G0 X7.920 Y-8.756
G0 Z0.0
G0 X11.393 Y-5.284
G0 Z1.0
G0 X12.705 Y-3.972
G0 Z0.0
G0 X13.488 Y-4.603
G0 Z1.0
G0 X10.863 Y-7.228
G0 Z0.0
G0 X8.117 Y-9.974
G0 Z1.0
G0 X8.638 Y-10.867
G0 Z0.0
G0 X10.333 Y-9.173
G0 Z1.0
G0 X14.282 Y-5.223
G0 Z0.0
G0 X15.117 Y-5.802
G0 Z1.0
G0 X14.752 Y-6.167
G0 Z0.0
G0 X9.802 Y-11.117
G0 Z1.0
G0 X9.261 Y-11.658
G0 Z0.0
G0 X9.929 Y-12.405
G0 Z1.0
G0 X14.222 Y-8.112
G0 Z0.0
G0 X15.991 Y-6.343
G0 Z1.0
G0 X16.914 Y-6.834
G0 Z0.0
G0 X13.691 Y-10.057
G0 Z1.0
G0 X10.655 Y-13.093
G0 Z0.0
G0 X11.477 Y-13.685
G0 Z1.0
G0 X13.161 Y-12.001
G0 Z0.0
G0 X17.848 Y-7.314
G0 Z1.0
G0 X18.836 Y-7.740
G0 Z0.0
G0 X17.580 Y-8.996
G0 Z1.0
G0 X12.631 Y-13.946
G0 Z0.0
G0 X12.386 Y-14.191
G0 Z1.0
G0 X13.378 Y-14.613
G0 Z0.0
G0 X17.050 Y-10.940
G0 Z1.0
G0 X19.841 Y-8.149
G0 Z0.0
G0 X20.884 Y-8.521
G0 Z1.0
G0 X16.520 Y-12.885
G0 Z0.0
G0 X14.455 Y-14.949
G0 Z1.0
G0 X15.637 Y-15.182
G0 Z0.0
G0 X15.989 Y-14.829
G0 Z1.0
G0 X20.939 Y-9.880
G0 Z0.0
G0 X21.958 Y-8.861
G0 Z1.0
G0 X23.053 Y-9.180
G0 Z0.0
G0 X20.409 Y-11.824
G0 Z1.0
G0 X16.916 Y-15.318
G0 Z0.0
G0 X18.328 Y-15.320
G0 Z1.0
G0 X19.879 Y-13.769
G0 Z0.0
G0 X24.197 Y-9.451
G0 Z1.0
G0 X25.362 Y-9.699
G0 Z0.0
G0 X24.298 Y-10.764
G0 Z1.0
G0 X19.911 Y-15.151
G0 Z0.0
G0 X21.814 Y-14.661
G0 Z1.0
G0 X23.768 Y-12.708
G0 Z0.0
G0 X26.563 Y-9.913
G0 Z1.0
G0 X27.289 Y-10.009
G0 Z0.0
G0 X28.409 Y-9.337
G0 Z1.0
G0 X29.835 Y-3.718
G0 Z0.0
G0 X29.520 Y1.395
G0 Z1.0
G0 X28.316 Y4.374
G0 Z0.0
G0 X27.869 Y6.270
G0 Z1.0
G0 X28.579 Y8.281
G0 Z0.0
G0 X30.451 Y9.392
G0 Z1.0
G0 X31.046 Y9.526
G0 Z0.0
G0 X35.476 Y7.462
G0 Z1.0
G0 X36.650 Y5.811
G0 Z0.0
G0 X33.714 Y7.180
G0 Z1.0
G0 X29.628 Y9.085
G0 Z0.0
G0 X28.696 Y8.419
G0 Z1.0
G0 X31.706 Y7.013
G0 Z0.0
G0 X37.291 Y4.409
G0 Z1.0
G0 X37.590 Y3.166
G0 Z0.0
G0 X36.041 Y3.888
G0 Z1.0
G0 X29.697 Y6.846
G0 Z0.0
G0 X28.143 Y7.571
G0 Z1.0
G0 X27.869 Y6.595
G0 Z0.0
G0 X34.033 Y3.721
G0 Z1.0
G0 X37.725 Y2.000
G0 Z0.0
G0 X37.743 Y0.888
G0 Z1.0
G0 X32.024 Y3.555
G0 Z0.0
G0 X27.895 Y5.480
G0 Z1.0
G0 X28.548 Y4.072
G0 Z0.0
G0 X30.015 Y3.388
G0 Z1.0
G0 X36.359 Y0.430
G0 Z0.0
G0 X37.667 Y-0.180
G0 Z1.0
G0 X37.519 Y-1.215
G0 Z0.0
G0 X34.351 Y0.263
G0 Z1.0
G0 X29.186 Y2.671
G0 Z0.0
G0 X29.516 Y1.414
G0 Z1.0
G0 X32.342 Y0.096
G0 Z0.0
G0 X37.316 Y-2.223
G0 Z1.0
G0 X37.068 Y-3.211
G0 Z0.0
G0 X36.678 Y-3.029
G0 Z1.0
G0 X30.334 Y-0.071
G0 Z0.0
G0 X29.734 Y0.209
G0 Z1.0
G0 X29.862 Y-0.954
G0 Z0.0
G0 X34.669 Y-3.196
G0 Z1.0
G0 X36.716 Y-4.150
G0 Z0.0
G0 X36.192 Y-5.009
G0 Z1.0
G0 X32.660 Y-3.362
G0 Z0.0
G0 X29.905 Y-2.077
G0 Z1.0
G0 X29.868 Y-3.164
G0 Z0.0
G0 X30.652 Y-3.529
G0 Z1.0
G0 X35.536 Y-5.807
G0 Z0.0
G0 X34.791 Y-6.563
G0 Z1.0
G0 X29.770 Y-4.222
G0 Z0.0
G0 X29.615 Y-5.252
G0 Z1.0
G0 X32.979 Y-6.821
G0 Z0.0
G0 X33.974 Y-7.285
G0 Z1.0
G0 X33.063 Y-7.964
G0 Z0.0
G0 X30.970 Y-6.988
G0 Z1.0
G0 X29.395 Y-6.253
G0 Z0.0
G0 X29.094 Y-7.216
G0 Z1.0
G0 X32.003 Y-8.573
G0 Z0.0
G0 X28.925 Y-9.360
G0 Z1.0
G0 X28.409 Y-9.337
G0 Z0.0
G0 X28.734 Y-8.152
G0 Z1.0
G0 X30.739 Y-9.087
G0 Z0.0
G0 X28.962 Y-9.362
G0 Z1.0
G0 X28.409 Y-9.104
G0 Z0.0
G0 X28.575 Y-8.514
G0 Z1.0
G0 X28.409 Y-8.441
G0 Z0.0
G0 X29.317 Y-3.900
G0 Z1.0
G0 X29.061 Y1.784
G0 Z0.0
G0 X27.482 Y5.169
G0 Z1.0
G0 X25.153 Y7.540
G0 Z0.0
G0 X24.796 Y7.636
G0 Z1.0
G0 X21.049 Y8.640
G0 Z0.0
G0 X19.413 Y8.043
G0 Z1.0
G0 X22.847 Y7.123
G0 Z0.0
G0 X26.713 Y6.087
G0 Z1.0
G0 X27.801 Y4.760
G0 Z0.0
G0 X27.659 Y4.798
G0 Z1.0
G0 X20.898 Y6.610
G0 Z0.0
G0 X18.476 Y7.259
G0 Z1.0
G0 X17.903 Y6.377
G0 Z0.0
G0 X18.949 Y6.097
G0 Z1.0
G0 X25.710 Y4.285
G0 Z0.0
G0 X28.448 Y3.551
G0 Z1.0
G0 X28.889 Y2.398
G0 Z0.0
G0 X23.761 Y3.772
G0 Z1.0
G0 X17.438 Y5.466
G0 Z0.0
G0 X17.373 Y4.449
G0 Z1.0
G0 X21.812 Y3.259
G0 Z0.0
G0 X28.573 Y1.447
G0 Z1.0
G0 X29.164 Y1.289
G0 Z0.0
G0 X29.315 Y0.213
G0 Z1.0
G0 X26.624 Y0.934
G0 Z0.0
G0 X19.863 Y2.746
G0 Z1.0
G0 X17.497 Y3.380
G0 Z0.0
G0 X18.443 Y2.091
G0 Z1.0
G0 X24.675 Y0.421
G0 Z0.0
G0 X29.368 Y-0.836
G0 Z1.0
G0 X29.365 Y-1.871
G0 Z0.0
G0 X22.726 Y-0.092
G0 Z1.0
G0 X20.874 Y0.405
G0 Z0.0
G0 X22.436 Y-1.048
G0 Z1.0
G0 X27.538 Y-2.416
G0 Z0.0
G0 X29.345 Y-2.901
G0 Z1.0
G0 X29.314 Y-3.928
G0 Z0.0
G0 X25.589 Y-2.929
G0 Z1.0
G0 X23.611 Y-2.399
G0 Z0.0
G0 X24.578 Y-3.692
G0 Z1.0
G0 X29.232 Y-4.941
G0 Z0.0
G0 X28.610 Y-7.880
G0 Z1.0
G0 X27.129 Y-7.483
G0 Z0.0
G0 X26.464 Y-6.270
G0 Z1.0
G0 X28.900 Y-6.922
G0 Z0.0
G0 X29.105 Y-5.942
G0 Z1.0
G0 X28.452 Y-5.767
G0 Z0.0
G0 X25.505 Y-4.977
G0 Z1.0
G0 X24.868 Y-4.098
G0 Z0.0
G0 X20.189 Y0.822
G0 Z1.0
G0 X15.942 Y3.086
G0 Z0.0
G0 X13.017 Y3.008
G0 Z1.0
G0 X11.347 Y1.286
G0 Z0.0
G0 X13.923 Y3.088
G0 Z1.0
G0 X14.134 Y3.236
G0 Z0.0
G0 X15.725 Y3.129
G0 Z1.0
G0 X13.063 Y1.265
G0 Z0.0
G0 X11.106 Y-0.105
G0 Z1.0
G0 X11.896 Y-2.551
G0 Z0.0
G0 X14.684 Y-5.307
G0 Z1.0
G0 X19.389 Y-7.501
G0 Z0.0
G0 X25.405 Y-9.283
G0 Z1.0
G0 X25.827 Y-9.328
G0 Z0.0
G0 X26.968 Y-8.531
G0 Z1.0
G0 X26.701 Y-7.497
G0 Z0.0
G0 X24.366 Y-9.132
G0 Z1.0
G0 X23.110 Y-8.793
G0 Z0.0
G0 X23.960 Y-8.195
G0 Z1.0
G0 X26.322 Y-6.542
G0 Z0.0
G0 X25.860 Y-5.645
G0 Z1.0
G0 X24.820 Y-6.373
G0 Z0.0
G0 X21.963 Y-8.373
G0 Z1.0
G0 X20.821 Y-7.952
G0 Z0.0
G0 X25.326 Y-4.798
G0 Z1.0
G0 X24.762 Y-3.972
G0 Z0.0
G0 X20.806 Y-6.742
G0 Z1.0
G0 X19.621 Y-7.572
G0 Z0.0
G0 X18.442 Y-7.176
G0 Z1.0
G0 X21.666 Y-4.919
G0 Z0.0
G0 X24.144 Y-3.184
G0 Z1.0
G0 X23.495 Y-2.417
G0 Z0.0
G0 X22.526 Y-3.096
G0 Z1.0
G0 X17.325 Y-6.738
G0 Z0.0
G0 X16.275 Y-6.252
G0 Z1.0
G0 X17.652 Y-5.288
G0 Z0.0
G0 X22.825 Y-1.666
G0 Z1.0
G0 X22.123 Y-0.936
G0 Z0.0
G0 X18.512 Y-3.465
G0 Z1.0
G0 X15.294 Y-5.718
G0 Z0.0
G0 X14.405 Y-5.120
G0 Z1.0
G0 X19.372 Y-1.642
G0 Z0.0
G0 X21.405 Y-0.219
G0 Z1.0
G0 X20.646 Y0.469
G0 Z0.0
G0 X20.232 Y0.181
G0 Z1.0
G0 X14.498 Y-3.834
G0 Z0.0
G0 X13.585 Y-4.473
G0 Z1.0
G0 X12.855 Y-3.764
G0 Z0.0
G0 X15.358 Y-2.011
G0 Z1.0
G0 X19.791 Y1.093
G0 Z0.0
G0 X18.853 Y1.657
G0 Z1.0
G0 X16.218 Y-0.189
G0 Z0.0
G0 X12.212 Y-2.993
G0 Z1.0
G0 X11.657 Y-2.161
G0 Z0.0
G0 X17.078 Y1.634
G0 Z1.0
G0 X17.904 Y2.213
G0 Z0.0
G0 X16.938 Y2.758
G0 Z1.0
G0 X12.203 Y-0.558
G0 Z0.0
G0 X11.257 Y-1.221
G0 Z1.0
G0 X11.139 Y-0.669
G0 Z0.0
G0 X5.341 Y-1.233
G0 Z1.0
G0 X-0.458 Y-1.797
G0 Z0.0
G0 X-6.256 Y-2.361
G0 Z1.0
G0 X-12.055 Y-2.925
G0 Z0.0
G0 X-12.073 Y-3.881
G0 Z1.0
G0 X-12.487 Y-1.535
G0 Z0.0
G0 X-12.590 Y-0.948
G0 Z1.0
G0 X-13.780 Y0.041
G0 Z0.0
G0 X-12.788 Y-5.588
G0 Z1.0
G0 X-13.639 Y-6.516
G0 Z0.0
G0 X-13.849 Y-5.329
G0 Z1.0
G0 X-14.866 Y0.437
G0 Z0.0
G0 X-15.897 Y0.529
G0 Z1.0
G0 X-15.137 Y-3.779
G0 Z0.0
G0 X-14.549 Y-7.119
G0 Z1.0
G0 X-15.479 Y-7.603
G0 Z0.0
G0 X-16.426 Y-2.229
G0 Z1.0
G0 X-16.895 Y0.431
G0 Z0.0
G0 X-17.848 Y0.077
G0 Z1.0
G0 X-17.715 Y-0.680
G0 Z0.0
G0 X-16.499 Y-7.573
G0 Z1.0
G0 X-16.423 Y-8.007
G0 Z0.0
G0 X-17.378 Y-8.346
G0 Z1.0
G0 X-17.788 Y-6.023
G0 Z0.0
G0 X-18.808 Y-0.238
G0 Z1.0
G0 X-19.768 Y-0.555
G0 Z0.0
G0 X-19.077 Y-4.474
G0 Z1.0
G0 X-18.344 Y-8.629
G0 Z0.0
G0 X-19.318 Y-8.864
G0 Z1.0
G0 X-20.365 Y-2.924
G0 Z0.0
G0 X-20.726 Y-0.879
G0 Z1.0
G0 X-21.672 Y-1.270
G0 Z0.0
G0 X-21.654 Y-1.374
G0 Z1.0
G0 X-20.439 Y-8.268
G0 Z0.0
G0 X-20.300 Y-9.054
G0 Z1.0
G0 X-21.290 Y-9.198
G0 Z0.0
G0 X-21.727 Y-6.718
G0 Z1.0
G0 X-22.614 Y-1.686
G0 Z0.0
G0 X-27.049 Y-4.573
G0 Z1.0
G0 X-30.069 Y-8.244
G0 Z0.0
G0 X-30.032 Y-8.734
G0 Z1.0
G0 X-29.474 Y-8.867
G0 Z0.0
G0 X-29.606 Y-8.107
G0 Z1.0
G0 X-29.693 Y-7.611
G0 Z0.0
G0 X-28.876 Y-6.487
G0 Z1.0
G0 X-28.419 Y-9.080
G0 Z0.0
G0 X-27.376 Y-9.232
G0 Z1.0
G0 X-28.032 Y-5.514
G0 Z0.0
G0 X-27.164 Y-4.676
G0 Z1.0
G0 X-26.955 Y-5.863
G0 Z0.0
G0 X-26.343 Y-9.332
G0 Z1.0
G0 X-25.318 Y-9.386
G0 Z0.0
G0 X-25.667 Y-7.413
G0 Z1.0
G0 X-26.280 Y-3.932
G0 Z0.0
G0 X-25.382 Y-3.267
G0 Z1.0
G0 X-24.378 Y-8.962
G0 Z0.0
G0 X-24.301 Y-9.398
G0 Z1.0
G0 X-23.291 Y-9.370
G0 Z0.0
G0 X-24.305 Y-3.618
G0 Z1.0
G0 X-24.467 Y-2.696
G0 Z0.0
G0 X-23.546 Y-2.163
G0 Z1.0
G0 X-23.016 Y-5.168
G0 Z0.0
G0 X-22.287 Y-9.303
G0 Z1.0
G0 X-21.416 Y-9.217
G0 Z0.0
G0 X-21.400 Y-9.330
G0 Z1.0
G0 X-13.765 Y-7.803
G0 Z0.0
G0 X-12.032 Y-8.753
G0 Z1.0
G0 X-11.389 Y-10.532
G0 Z0.0
G0 X-12.027 Y-13.739
G0 Z1.0
G0 X-12.522 Y-14.584
G0 Z0.0
G0 X-13.370 Y-15.296
G0 Z1.0
G0 X-14.226 Y-16.015
G0 Z0.0
G0 X-16.461 Y-16.584
G0 Z1.0
G0 X-12.672 Y-13.405
G0 Z0.0
G0 X-11.586 Y-12.493
G0 Z1.0
G0 X-11.399 Y-11.031
G0 Z0.0
G0 X-11.974 Y-11.514
G0 Z1.0
G0 X-17.337 Y-16.013
G0 Z0.0
G0 X-18.022 Y-16.589
G0 Z1.0
G0 X-19.549 Y-16.565
G0 Z0.0
G0 X-16.639 Y-14.123
G0 Z1.0
G0 X-11.477 Y-9.791
G0 Z0.0
G0 X-11.935 Y-8.870
G0 Z1.0
G0 X-15.941 Y-12.232
G0 Z0.0
G0 X-20.894 Y-16.388
G0 Z1.0
G0 X-22.043 Y-16.046
G0 Z0.0
G0 X-20.605 Y-14.840
G0 Z1.0
G0 X-15.243 Y-10.341
G0 Z0.0
G0 X-12.667 Y-8.179
G0 Z1.0
G0 X-13.774 Y-7.803
G0 Z0.0
G0 X-14.545 Y-8.450
G0 Z1.0
G0 X-19.908 Y-12.949
G0 Z0.0
G0 X-23.140 Y-15.662
G0 Z1.0
G0 X-24.137 Y-15.195
G0 Z0.0
G0 X-19.210 Y-11.058
G0 Z1.0
G0 X-15.509 Y-7.953
G0 Z0.0
G0 X-17.891 Y-8.646
G0 Z1.0
G0 X-18.512 Y-9.167
G0 Z0.0
G0 X-23.874 Y-13.667
G0 Z1.0
G0 X-25.047 Y-14.651
G0 Z0.0
G0 X-25.899 Y-14.061
G0 Z1.0
G0 X-23.177 Y-11.776
G0 Z0.0
G0 X-20.024 Y-9.131
G0 Z1.0
G0 X-21.887 Y-9.389
G0 Z0.0
G0 X-22.479 Y-9.885
G0 Z1.0
G0 X-26.697 Y-13.425
G0 Z0.0
G0 X-27.439 Y-12.742
G0 Z1.0
G0 X-27.143 Y-12.494
G0 Z0.0
G0 X-23.605 Y-9.524
G0 Z1.0
G0 X-25.233 Y-9.586
G0 Z0.0
G0 X-26.446 Y-10.603
G0 Z1.0
G0 X-28.120 Y-12.008
G0 Z0.0
G0 X-28.731 Y-11.215
G0 Z1.0
G0 X-26.803 Y-9.597
G0 Z0.0
G0 X-28.335 Y-9.578
G0 Z1.0
G0 X-29.257 Y-10.351
G0 Z0.0
G0 X-29.623 Y-9.561
G0 Z1.0
G0 X-30.071 Y-7.769
G0 Z0.0
G0 X-26.089 Y-3.623
G0 Z1.0
G0 X-21.067 Y-0.790
G0 Z0.0
G0 X-17.575 Y0.863
G0 Z1.0
G0 X-15.950 Y3.287
G0 Z0.0
G0 X-16.130 Y5.548
G0 Z1.0
G0 X-16.523 Y6.156
G0 Z0.0
G0 X-21.794 Y7.086
G0 Z1.0
G0 X-22.435 Y7.199
G0 Z0.0
G0 X-23.804 Y6.424
G0 Z1.0
G0 X-23.691 Y6.405
G0 Z0.0
G0 X-16.797 Y5.189
G0 Z1.0
G0 X-15.940 Y5.038
G0 Z0.0
G0 X-15.862 Y4.009
G0 Z1.0
G0 X-18.694 Y4.508
G0 Z0.0
G0 X-24.951 Y5.611
G0 Z1.0
G0 X-25.798 Y4.745
G0 Z0.0
G0 X-20.592 Y3.827
G0 Z1.0
G0 X-16.024 Y3.022
G0 Z0.0
G0 X-17.983 Y0.528
G0 Z1.0
G0 X-24.692 Y-2.640
G0 Z0.0
G0 X-28.687 Y-6.096
G0 Z1.0
G0 X-30.024 Y-7.710
G0 Z0.0
G0 X-30.556 Y-7.616
G0 Z1.0
G0 X-30.765 Y-6.564
G0 Z0.0
G0 X-29.569 Y-6.775
G0 Z1.0
G0 X-29.306 Y-6.821
G0 Z0.0
G0 X-28.552 Y-5.939
G0 Z1.0
G0 X-30.831 Y-5.537
G0 Z0.0
G0 X-30.707 Y-4.543
G0 Z1.0
G0 X-27.727 Y-5.069
G0 Z0.0
G0 X-26.805 Y-4.216
G0 Z1.0
G0 X-30.476 Y-3.569
G0 Z0.0
G0 X-30.189 Y-2.604
G0 Z1.0
G0 X-28.874 Y-2.836
G0 Z0.0
G0 X-25.766 Y-3.384
G0 Z1.0
G0 X-24.585 Y-2.577
G0 Z0.0
G0 X-26.977 Y-2.155
G0 Z1.0
G0 X-29.839 Y-1.650
G0 Z0.0
G0 X-29.450 Y-0.703
G0 Z1.0
G0 X-25.080 Y-1.474
G0 Z0.0
G0 X-23.235 Y-1.799
G0 Z1.0
G0 X-21.689 Y-1.056
G0 Z0.0
G0 X-23.183 Y-0.793
G0 Z1.0
G0 X-28.979 Y0.229
G0 Z0.0
G0 X-28.463 Y1.153
G0 Z1.0
G0 X-28.180 Y1.104
G0 Z0.0
G0 X-21.286 Y-0.112
G0 Z1.0
G0 X-19.921 Y-0.353
G0 Z0.0
G0 X-18.235 Y0.365
G0 Z1.0
G0 X-19.389 Y0.569
G0 Z0.0
G0 X-26.283 Y1.784
G0 Z1.0
G0 X-27.904 Y2.070
G0 Z0.0
G0 X-27.257 Y2.972
G0 Z1.0
G0 X-24.386 Y2.465
G0 Z0.0
G0 X-17.492 Y1.250
G0 Z1.0
G0 X-17.262 Y1.209
G0 Z0.0
G0 X-16.523 Y2.094
G0 Z1.0
G0 X-22.489 Y3.146
G0 Z0.0
G0 X-26.558 Y3.864
G0 Z1.0
G0 X-25.946 Y4.594
G0 Z0.0
G0 X-26.042 Y4.678
G0 Z1.0
G0 X-24.408 Y7.385
G0 Z0.0
G0 X-24.458 Y9.567
G0 Z1.0
G0 X-26.133 Y11.338
G0 Z0.0
G0 X-28.281 Y11.339
G0 Z1.0
G0 X-29.537 Y10.664
G0 Z0.0
G0 X-28.738 Y10.664
G0 Z1.0
G0 X-25.231 Y10.664
G0 Z0.0
G0 X-24.496 Y9.664
G0 Z1.0
G0 X-30.488 Y9.664
G0 Z0.0
G0 X-30.742 Y9.664
G0 Z1.0
G0 X-31.546 Y8.664
G0 Z0.0
G0 X-25.238 Y8.664
G0 Z1.0
G0 X-24.248 Y8.664
G0 Z0.0
G0 X-24.344 Y7.664
G0 Z1.0
G0 X-26.988 Y7.664
G0 Z0.0
G0 X-32.146 Y7.664
G0 Z1.0
G0 X-32.612 Y6.664
G0 Z0.0
G0 X-28.738 Y6.664
G0 Z1.0
G0 X-24.656 Y6.664
G0 Z0.0
G0 X-25.239 Y5.664
G0 Z1.0
G0 X-30.488 Y5.664
G0 Z0.0
G0 X-32.987 Y5.664
G0 Z1.0
G0 X-33.253 Y4.664
G0 Z0.0
G0 X-32.238 Y4.664
G0 Z1.0
G0 X-26.054 Y4.664
G0 Z0.0
G0 X-26.910 Y3.664
G0 Z1.0
G0 X-33.434 Y3.664
G0 Z0.0
G0 X-33.535 Y2.664
G0 Z1.0
G0 X-28.738 Y2.664
G0 Z0.0
G0 X-27.671 Y2.664
G0 Z1.0
G0 X-28.342 Y1.664
G0 Z0.0
G0 X-30.488 Y1.664
G0 Z1.0
G0 X-33.562 Y1.664
G0 Z0.0
G0 X-33.515 Y0.667
G0 Z1.0
G0 X-32.238 Y0.664
G0 Z0.0
G0 X-28.929 Y0.664
G0 Z1.0
G0 X-29.438 Y-0.336
G0 Z0.0
G0 X-33.389 Y-0.336
G0 Z1.0
G0 X-33.175 Y-1.336
G0 Z0.0
G0 X-29.876 Y-1.336
G0 Z1.0
G0 X-30.257 Y-2.336
G0 Z0.0
G0 X-30.488 Y-2.336
G0 Z1.0
G0 X-32.858 Y-2.336
G0 Z0.0
G0 X-32.280 Y-3.334
G0 Z1.0
G0 X-30.590 Y-3.336
G0 Z0.0
G0 X-30.886 Y-4.336
G0 Z1.0
G0 X-31.613 Y-4.336
G0 Z0.0
G0 X-30.967 Y-4.632
G0 Z1.0
G0 X-31.290 Y-4.484
G0 Z0.0
G0 X-31.613 Y-4.336
G0 Z1.0
G0 X-31.290 Y-4.484
G0 Z0.0
G0 X-30.967 Y-4.632
G0 Z1.0
G0 X-29.847 Y-10.457
G0 Z0.0
G0 X-29.824 Y-11.207
G0 Z1.0
G0 X-29.801 Y-11.957
G0 Z0.0
G0 X-29.824 Y-11.207
G0 Z1.0
G0 X-29.847 Y-10.457
G0 Z0.0
G0 X-29.680 Y-15.940
G0 Z1.0
G0 X-28.012 Y-20.035
G0 Z0.0
G0 X-26.026 Y-22.150
G0 Z1.0
G0 X-23.024 Y-23.510
G0 Z0.0
G0 X-21.413 Y-23.507
G0 Z1.0
G0 X-19.011 Y-22.121
G0 Z0.0
G0 X-18.424 Y-20.628
G0 Z1.0
G0 X-23.324 Y-23.457
G0 Z0.0
G0 X-24.576 Y-23.025
G0 Z1.0
G0 X-22.823 Y-22.013
G0 Z0.0
G0 X-18.306 Y-19.405
G0 Z1.0
G0 X-18.494 Y-18.359
G0 Z0.0
G0 X-21.808 Y-20.272
G0 Z1.0
G0 X-25.597 Y-22.460
G0 Z0.0
G0 X-26.480 Y-21.815
G0 Z1.0
G0 X-20.792 Y-18.531
G0 Z0.0
G0 X-18.993 Y-17.492
G0 Z1.0
G0 X-19.866 Y-16.841
G0 Z0.0
G0 X-25.839 Y-20.290
G0 Z1.0
G0 X-27.266 Y-21.114
G0 Z0.0
G0 X-27.840 Y-20.290
G0 Z1.0
G0 X-24.823 Y-18.549
G0 Z0.0
G0 X-21.103 Y-16.401
G0 Z1.0
G0 X-22.402 Y-15.996
G0 Z0.0
G0 X-23.808 Y-16.808
G0 Z1.0
G0 X-28.362 Y-19.437
G0 Z0.0
G0 X-28.830 Y-18.555
G0 Z1.0
G0 X-23.596 Y-15.531
G0 Z0.0
G0 X-24.643 Y-14.980
G0 Z1.0
G0 X-27.839 Y-16.826
G0 Z0.0
G0 X-29.201 Y-17.612
G0 Z1.0
G0 X-29.503 Y-16.632
G0 Z0.0
G0 X-26.823 Y-15.085
G0 Z1.0
G0 X-25.580 Y-14.367
G0 Z0.0
G0 X-26.437 Y-13.707
G0 Z1.0
G0 X-29.732 Y-15.609
G0 Z0.0
G0 X-29.883 Y-14.542
G0 Z1.0
G0 X-27.235 Y-13.013
G0 Z0.0
G0 X-27.990 Y-12.294
G0 Z1.0
G0 X-29.839 Y-13.362
G0 Z0.0
G0 X-29.954 Y-13.428
G0 Z1.0
G0 X-29.948 Y-12.272
G0 Z0.0
G0 X-28.823 Y-11.621
G0 Z1.0
G0 X-28.732 Y-11.568
G0 Z0.0
G0 X-29.468 Y-10.838
G0 Z1.0
G0 X-29.888 Y-11.081
G0 Z0.0
G0 X-29.847 Y-10.457
G0 Z1.0
G0 X-31.466 Y-8.968
G0 Z0.0
G0 X-34.752 Y-11.673
G0 Z1.0
G0 X-37.919 Y-12.523
G0 Z0.0
G0 X-39.354 Y-12.336
G0 Z1.0
G0 X-36.466 Y-12.336
G0 Z0.0
G0 X-34.148 Y-11.336
G0 Z1.0
G0 X-39.238 Y-11.336
G0 Z0.0
G0 X-40.639 Y-11.336
G0 Z1.0
G0 X-40.819 Y-10.336
G0 Z0.0
G0 X-37.488 Y-10.336
G0 Z1.0
G0 X-32.903 Y-10.336
G0 Z0.0
G0 X-31.862 Y-9.336
G0 Z1.0
G0 X-35.738 Y-9.336
G0 Z0.0
G0 X-39.734 Y-9.336
G0 Z1.0
G0 X-36.869 Y-8.400
G0 Z0.0
G0 X-31.191 Y-8.217
G0 Z1.0
G0 X-31.234 Y-8.334
G0 Z0.0
G0 X-33.988 Y-8.336
G0 Z1.0
G0 X-35.817 Y-8.336
G0 Z0.0
G0 X-31.663 Y-8.209
G0 Z1.0
G0 X-31.640 Y-6.872
G0 Z0.0
G0 X-34.762 Y-4.963
G0 Z1.0
G0 X-38.655 Y-3.427
G0 Z0.0
G0 X-38.731 Y-1.349
G0 Z1.0
G0 X-38.127 Y-0.336
G0 Z0.0
G0 X-35.195 Y-0.336
G0 Z1.0
G0 X-34.012 Y-1.336
G0 Z0.0
G0 X-35.738 Y-1.336
G0 Z1.0
G0 X-38.725 Y-1.336
G0 Z0.0
G0 X-38.881 Y-2.336
G0 Z1.0
G0 X-37.488 Y-2.336
G0 Z0.0
G0 X-33.254 Y-2.336
G0 Z1.0
G0 X-32.692 Y-3.336
G0 Z0.0
G0 X-38.756 Y-3.336
G0 Z1.0
G0 X-36.724 Y-4.336
G0 Z0.0
G0 X-33.988 Y-4.336
G0 Z1.0
G0 X-32.192 Y-4.336
G0 Z0.0
G0 X-31.415 Y-5.304
G0 Z1.0
G0 X-31.191 Y-6.872
G0 Z0.0
G0 X-32.213 Y-6.363
G0 Z1.0
G0 X-31.268 Y-6.336
G0 Z0.0
G0 X-31.411 Y-5.338
G0 Z1.0
G0 X-33.877 Y-5.336
G0 Z0.0
G0 X-36.562 Y-4.380
G0 Z1.0
G0 X-38.754 Y-4.336
G0 Z0.0
G0 X-38.653 Y-4.336
G0 Z1.0
G0 X-35.960 Y-4.689
G0 Z0.0
G0 X-34.534 Y-5.336
G0 Z1.0
G0 X-35.738 Y-5.336
G0 Z0.0
G0 X-40.840 Y-5.336
G0 Z1.0
G0 X-41.107 Y-6.333
G0 Z0.0
G0 X-37.488 Y-6.336
G0 Z1.0
G0 X-32.553 Y-6.336
G0 Z0.0
G0 X-31.652 Y-7.336
G0 Z1.0
G0 X-32.238 Y-7.336
G0 Z0.0
G0 X-39.238 Y-7.336
G0 Z1.0
G0 X-41.027 Y-7.336
G0 Z0.0
G0 X-40.381 Y-8.151
G0 Z1.0
G0 X-32.519 Y-7.869
G0 Z0.0
G0 X-31.537 Y-7.779
G0 Z1.0
G0 X-31.415 Y-9.113
G0 Z0.0
G0 X-31.599 Y-9.336
G0 Z1.0
G0 X-30.978 Y-9.336
G0 Z0.0
G0 X-31.109 Y-10.336
G0 Z1.0
G0 X-32.480 Y-10.336
G0 Z0.0
G0 X-33.789 Y-11.336
G0 Z1.0
G0 X-32.238 Y-11.336
G0 Z0.0
G0 X-31.446 Y-11.336
G0 Z1.0
G0 X-31.848 Y-12.336
G0 Z0.0
G0 X-33.988 Y-12.336
G0 Z1.0
G0 X-35.988 Y-12.336
G0 Z0.0
G0 X-39.072 Y-13.875
G0 Z1.0
G0 X-39.253 Y-16.179
G0 Z0.0
G0 X-38.422 Y-17.101
G0 Z1.0
G0 X-35.883 Y-17.049
G0 Z0.0
G0 X-34.665 Y-16.336
G0 Z1.0
G0 X-39.170 Y-16.336
G0 Z0.0
G0 X-39.384 Y-15.336
G0 Z1.0
G0 X-39.238 Y-15.336
G0 Z0.0
G0 X-33.602 Y-15.336
G0 Z1.0
G0 X-32.863 Y-14.336
G0 Z0.0
G0 X-37.488 Y-14.336
G0 Z1.0
G0 X-39.287 Y-14.336
G0 Z0.0
G0 X-38.374 Y-13.336
G0 Z1.0
G0 X-35.738 Y-13.336
G0 Z0.0
G0 X-32.303 Y-13.336
G0 Z1.0
G0 X-31.871 Y-12.395
G0 Z0.0
G0 X-31.731 Y-12.451
G0 Z1.0
G0 X-30.519 Y-10.233
G0 Z0.0
G0 X-30.517 Y-10.336
G0 Z1.0
G0 X-33.382 Y-15.401
G0 Z0.0
G0 X-35.446 Y-17.826
G0 Z1.0
G0 X-35.673 Y-20.316
G0 Z0.0
G0 X-33.988 Y-20.336
G0 Z1.0
G0 X-33.023 Y-20.336
G0 Z0.0
G0 X-32.045 Y-19.336
G0 Z1.0
G0 X-32.238 Y-19.336
G0 Z0.0
G0 X-35.698 Y-19.336
G0 Z1.0
G0 X-35.599 Y-18.336
G0 Z0.0
G0 X-31.581 Y-18.336
G0 Z1.0
G0 X-31.244 Y-17.336
G0 Z0.0
G0 X-35.208 Y-17.336
G0 Z1.0
G0 X-34.293 Y-16.336
G0 Z0.0
G0 X-33.988 Y-16.336
G0 Z1.0
G0 X-30.942 Y-16.336
G0 Z0.0
G0 X-30.730 Y-15.336
G0 Z1.0
G0 X-32.238 Y-15.336
G0 Z0.0
G0 X-33.331 Y-15.336
G0 Z1.0
G0 X-32.634 Y-14.336
G0 Z0.0
G0 X-30.605 Y-14.336
G0 Z1.0
G0 X-30.514 Y-13.336
G0 Z0.0
G0 X-32.121 Y-13.336
G0 Z1.0
G0 X-31.684 Y-12.336
G0 Z0.0
G0 X-30.494 Y-12.336
G0 Z1.0
G0 X-30.495 Y-11.336
G0 Z0.0
G0 X-31.263 Y-11.336
G0 Z1.0
G0 X-31.159 Y-11.142
G0 Z0.0
G0 X-30.827 Y-11.239
G0 Z1.0
G0 X-30.495 Y-11.336
G0 Z0.0
G0 X-30.827 Y-11.239
G0 Z1.0
G0 X-31.159 Y-11.142
G0 Z0.0
M00
G0 X-44.005 Y-4.240
G0 Z1.0
G0 X-43.936 Y-3.493
G0 Z0.0
G0 X-43.866 Y-2.746
G0 Z1.0
G0 X-43.936 Y-3.493
G0 Z0.0
G0 X-44.005 Y-4.240
G0 Z1.0
G0 X-43.786 Y-1.875
G0 Z0.0
G0 X-45.647 Y-0.142
G0 Z1.0
G0 X-47.773 Y-0.336
G0 Z0.0
G0 X-45.237 Y-0.336
G0 Z1.0
G0 X-44.170 Y-1.336
G0 Z0.0
G0 X-48.640 Y-1.336
G0 Z1.0
G0 X-48.927 Y-2.336
G0 Z0.0
G0 X-44.488 Y-2.336
G0 Z1.0
G0 X-43.699 Y-2.336
G0 Z0.0
G0 X-43.746 Y-3.336
G0 Z1.0
G0 X-46.238 Y-3.336
G0 Z0.0
G0 X-48.962 Y-3.336
G0 Z1.0
G0 X-48.818 Y-4.336
G0 Z0.0
G0 X-47.988 Y-4.336
G0 Z1.0
G0 X-44.073 Y-4.336
G0 Z0.0
G0 X-45.104 Y-5.336
G0 Z1.0
G0 X-48.045 Y-5.336
G0 Z0.0
G0 X-46.324 Y-5.616
G0 Z1.0
G0 X-46.117 Y-10.924
G0 Z0.0
G0 X-45.910 Y-16.233
G0 Z1.0
G0 X-46.692 Y-16.336
G0 Z0.0
G0 X-44.705 Y-16.336
G0 Z1.0
G0 X-43.214 Y-17.336
G0 Z0.0
G0 X-47.844 Y-17.336
G0 Z1.0
G0 X-48.091 Y-18.336
G0 Z0.0
G0 X-44.488 Y-18.336
G0 Z1.0
G0 X-42.867 Y-18.336
G0 Z0.0
G0 X-42.808 Y-19.336
G0 Z1.0
G0 X-46.238 Y-19.336
G0 Z0.0
G0 X-48.113 Y-19.336
G0 Z1.0
G0 X-47.642 Y-20.744
G0 Z0.0
G0 X-45.681 Y-21.546
G0 Z1.0
G0 X-44.253 Y-21.336
G0 Z0.0
G0 X-46.703 Y-21.336
G0 Z1.0
G0 X-47.980 Y-20.336
G0 Z0.0
G0 X-43.127 Y-20.336
G0 Z1.0
G0 X-42.843 Y-19.868
G0 Z0.0
G0 X-38.655 Y-22.077
G0 Z1.0
G0 X-34.467 Y-24.286
G0 Z0.0
G0 X-33.466 Y-23.336
G0 Z1.0
G0 X-32.238 Y-23.336
G0 Z0.0
G0 X-30.841 Y-23.336
G0 Z1.0
G0 X-29.482 Y-24.336
G0 Z0.0
G0 X-33.988 Y-24.336
G0 Z1.0
G0 X-34.493 Y-24.336
G0 Z0.0
G0 X-34.904 Y-25.336
G0 Z1.0
G0 X-29.058 Y-25.336
G0 Z0.0
G0 X-28.954 Y-26.336
G0 Z1.0
G0 X-30.488 Y-26.336
G0 Z0.0
G0 X-35.062 Y-26.336
G0 Z1.0
G0 X-34.671 Y-28.023
G0 Z0.0
G0 X-32.897 Y-28.978
G0 Z1.0
G0 X-30.424 Y-28.783
G0 Z0.0
G0 X-29.867 Y-28.336
G0 Z1.0
G0 X-33.988 Y-28.336
G0 Z0.0
G0 X-34.383 Y-28.336
G0 Z1.0
G0 X-35.017 Y-27.336
G0 Z0.0
G0 X-32.238 Y-27.336
G0 Z1.0
G0 X-29.210 Y-27.336
G0 Z0.0
G0 X-28.951 Y-26.590
G0 Z1.0
G0 X-22.323 Y-26.555
G0 Z0.0
G0 X-15.695 Y-26.521
G0 Z1.0
G0 X-9.068 Y-26.487
G0 Z0.0
G0 X-2.440 Y-26.452
G0 Z1.0
G0 X4.188 Y-26.418
G0 Z0.0
G0 X10.816 Y-26.384
G0 Z1.0
G0 X17.444 Y-26.349
G0 Z0.0
G0 X24.071 Y-26.315
G0 Z1.0
G0 X24.684 Y-23.651
G0 Z0.0
G0 X25.521 Y-22.986
G0 Z1.0
G0 X27.780 Y-22.858
G0 Z0.0
G0 X28.473 Y-23.335
G0 Z1.0
G0 X24.895 Y-23.336
G0 Z0.0
G0 X26.578 Y-22.802
G0 Z1.0
G0 X28.050 Y-23.008
G0 Z0.0
G0 X29.189 Y-24.474
G0 Z1.0
G0 X29.238 Y-27.127
G0 Z0.0
G0 X29.081 Y-27.334
G0 Z1.0
G0 X24.578 Y-27.336
G0 Z0.0
G0 X24.078 Y-26.336
G0 Z1.0
G0 X25.512 Y-26.336
G0 Z0.0
G0 X29.399 Y-26.336
G0 Z1.0
G0 X29.132 Y-24.336
G0 Z0.0
G0 X29.012 Y-24.336
G0 Z1.0
G0 X24.351 Y-24.336
G0 Z0.0
G0 X24.123 Y-25.334
G0 Z1.0
G0 X27.262 Y-25.336
G0 Z0.0
G0 X29.395 Y-25.336
G0 Z1.0
G0 X29.302 Y-24.904
G0 Z0.0
G0 X34.184 Y-23.856
G0 Z1.0
G0 X39.066 Y-22.809
G0 Z0.0
G0 X40.303 Y-24.336
G0 Z1.0
G0 X43.012 Y-24.336
G0 Z0.0
G0 X44.134 Y-24.336
G0 Z1.0
G0 X45.140 Y-23.336
G0 Z0.0
G0 X44.762 Y-23.336
G0 Z1.0
G0 X39.375 Y-23.336
G0 Z0.0
G0 X38.991 Y-22.336
G0 Z1.0
G0 X39.512 Y-22.336
G0 Z0.0
G0 X45.313 Y-22.336
G0 Z1.0
G0 X45.293 Y-21.338
G0 Z0.0
G0 X41.262 Y-21.336
G0 Z1.0
G0 X38.901 Y-21.336
G0 Z0.0
G0 X39.049 Y-20.336
G0 Z1.0
G0 X43.012 Y-20.336
G0 Z0.0
G0 X45.062 Y-20.336
G0 Z1.0
G0 X44.115 Y-19.336
G0 Z0.0
G0 X39.687 Y-19.336
G0 Z1.0
G0 X41.395 Y-18.675
G0 Z0.0
G0 X42.930 Y-18.831
G0 Z1.0
G0 X44.337 Y-12.987
G0 Z0.0
G0 X45.744 Y-7.142
G0 Z1.0
G0 X44.093 Y-6.112
G0 Z0.0
G0 X43.373 Y-4.141
G0 Z1.0
G0 X44.020 Y-2.368
G0 Z0.0
G0 X46.512 Y-2.336
G0 Z1.0
G0 X47.699 Y-2.336
G0 Z0.0
G0 X48.675 Y-3.336
G0 Z1.0
G0 X44.762 Y-3.336
G0 Z0.0
G0 X43.480 Y-3.336
G0 Z1.0
G0 X43.678 Y-5.451
G0 Z0.0
G0 X45.170 Y-6.977
G0 Z1.0
G0 X47.222 Y-6.974
G0 Z0.0
G0 X48.163 Y-6.336
G0 Z1.0
G0 X46.512 Y-6.336
G0 Z0.0
G0 X44.277 Y-6.336
G0 Z1.0
G0 X43.629 Y-5.336
G0 Z0.0
G0 X48.262 Y-5.336
G0 Z1.0
G0 X48.907 Y-5.336
G0 Z0.0
G0 X48.962 Y-4.336
G0 Z1.0
G0 X43.379 Y-4.336
G0 Z0.0
G0 X43.400 Y-3.664
G0 Z1.0
G0 X43.390 Y-4.000
G0 Z0.0
G0 X43.379 Y-4.336
G0 Z1.0
G0 X43.390 Y-4.000
G0 Z0.0
G0 X43.400 Y-3.664
G0 Z1.0
M00
G0 X-15.197 Y2.150
G0 Z0.0
G0 X-9.604 Y8.172
G0 Z1.0
G0 X-5.321 Y15.044
G0 Z0.0
G0 X-3.135 Y20.274
G0 Z1.0
G0 X-1.662 Y25.739
G0 Z0.0
G0 X-3.080 Y26.197
G0 Z1.0
G0 X-2.960 Y27.857
G0 Z0.0
G0 X-3.121 Y27.615
G0 Z1.0
G0 X-2.929 Y27.424
G0 Z0.0
G0 X-3.951 Y23.517
G0 Z1.0
G0 X-7.095 Y17.337
G0 Z0.0
G0 X-10.333 Y13.785
G0 Z1.0
G0 X-12.073 Y12.639
G0 Z0.0
G0 X-15.779 Y11.670
G0 Z1.0
G0 X-16.986 Y11.783
G0 Z0.0
G0 X-18.836 Y13.632
G0 Z1.0
G0 X-20.305 Y15.101
G0 Z0.0
G0 X-20.194 Y16.405
G0 Z1.0
G0 X-16.891 Y13.101
G0 Z0.0
G0 X-15.478 Y11.688
G0 Z1.0
G0 X-14.241 Y11.866
G0 Z0.0
G0 X-14.946 Y12.571
G0 Z1.0
G0 X-19.825 Y17.449
G0 Z0.0
G0 X-19.124 Y18.163
G0 Z1.0
G0 X-17.952 Y16.990
G0 Z0.0
G0 X-13.157 Y12.196
G0 Z1.0
G0 X-12.152 Y12.605
G0 Z0.0
G0 X-16.007 Y16.460
G0 Z1.0
G0 X-18.398 Y18.851
G0 Z0.0
G0 X-17.609 Y19.476
G0 Z1.0
G0 X-14.063 Y15.930
G0 Z0.0
G0 X-11.262 Y13.129
G0 Z1.0
G0 X-10.430 Y13.711
G0 Z0.0
G0 X-12.118 Y15.399
G0 Z1.0
G0 X-16.747 Y20.028
G0 Z0.0
G0 X-15.792 Y20.487
G0 Z1.0
G0 X-15.123 Y19.819
G0 Z0.0
G0 X-10.173 Y14.869
G0 Z1.0
G0 X-9.652 Y14.347
G0 Z0.0
G0 X-8.926 Y15.033
G0 Z1.0
G0 X-13.179 Y19.288
G0 Z0.0
G0 X-14.725 Y20.835
G0 Z1.0
G0 X-13.616 Y21.140
G0 Z0.0
G0 X-11.234 Y18.758
G0 Z1.0
G0 X-8.255 Y15.779
G0 Z0.0
G0 X-7.634 Y16.572
G0 Z1.0
G0 X-9.290 Y18.228
G0 Z0.0
G0 X-12.511 Y21.449
G0 Z1.0
G0 X-11.429 Y21.779
G0 Z0.0
G0 X-7.345 Y17.697
G0 Z1.0
G0 X-7.051 Y17.403
G0 Z0.0
G0 X-6.503 Y18.269
G0 Z1.0
G0 X-10.350 Y22.117
G0 Z0.0
G0 X-9.411 Y22.589
G0 Z1.0
G0 X-8.406 Y21.587
G0 Z0.0
G0 X-5.986 Y19.167
G0 Z1.0
G0 X-5.500 Y20.095
G0 Z0.0
G0 X-6.461 Y21.056
G0 Z1.0
G0 X-8.463 Y23.058
G0 Z0.0
G0 X-7.538 Y23.547
G0 Z1.0
G0 X-5.013 Y21.022
G0 Z0.0
G0 X-4.557 Y21.980
G0 Z1.0
G0 X-6.638 Y24.062
G0 Z0.0
G0 X-5.800 Y24.638
G0 Z1.0
G0 X-5.577 Y24.415
G0 Z0.0
G0 X-4.147 Y22.985
G0 Z1.0
G0 X-3.781 Y24.033
G0 Z0.0
G0 X-5.034 Y25.286
G0 Z1.0
G0 X-4.341 Y26.007
G0 Z0.0
G0 X-3.434 Y25.100
G0 Z1.0
G0 X-3.089 Y26.170
G0 Z0.0
G0 X-3.717 Y26.797
G0 Z1.0
G0 X-2.960 Y27.857
G0 Z0.0
G0 X-3.338 Y27.327
G0 Z1.0
G0 X-3.717 Y26.797
G0 Z0.0
G0 X-3.338 Y27.327
G0 Z1.0
G0 X-2.960 Y27.857
G0 Z0.0
G0 X0.492 Y28.396
G0 Z1.0
G0 X0.447 Y28.687
G0 Z0.0
G0 X0.401 Y28.978
G0 Z1.0
G0 X0.447 Y28.687
G0 Z0.0
G0 X0.492 Y28.396
G0 Z1.0
G0 X0.401 Y28.978
G0 Z0.0
G0 X1.164 Y28.328
G0 Z1.0
G0 X0.592 Y27.756
G0 Z0.0
G0 X1.986 Y21.500
G0 Z1.0
G0 X6.794 Y14.828
G0 Z0.0
G0 X9.563 Y12.662
G0 Z1.0
G0 X13.288 Y11.867
G0 Z0.0
G0 X16.565 Y12.634
G0 Z1.0
G0 X18.772 Y14.823
G0 Z0.0
G0 X19.042 Y16.507
G0 Z1.0
G0 X16.697 Y14.162
G0 Z0.0
G0 X14.499 Y11.964
G0 Z1.0
G0 X12.987 Y11.867
G0 Z0.0
G0 X17.227 Y16.106
G0 Z1.0
G0 X18.821 Y17.701
G0 Z0.0
G0 X18.398 Y18.692
G0 Z1.0
G0 X17.757 Y18.051
G0 Z0.0
G0 X12.808 Y13.101
G0 Z1.0
G0 X11.707 Y12.001
G0 Z0.0
G0 X10.578 Y12.286
G0 Z1.0
G0 X13.338 Y15.046
G0 Z0.0
G0 X17.766 Y19.474
G0 Z1.0
G0 X16.997 Y20.119
G0 Z0.0
G0 X13.868 Y16.990
G0 Z1.0
G0 X9.547 Y12.669
G0 Z0.0
G0 X8.623 Y13.160
G0 Z1.0
G0 X9.449 Y13.985
G0 Z0.0
G0 X14.398 Y18.935
G0 Z1.0
G0 X16.055 Y20.591
G0 Z0.0
G0 X15.008 Y20.959
G0 Z1.0
G0 X14.929 Y20.879
G0 Z0.0
G0 X9.979 Y15.930
G0 Z1.0
G0 X7.838 Y13.788
G0 Z0.0
G0 X7.121 Y14.486
G0 Z1.0
G0 X10.509 Y17.874
G0 Z0.0
G0 X13.908 Y21.272
G0 Z1.0
G0 X12.770 Y21.549
G0 Z0.0
G0 X11.040 Y19.819
G0 Z1.0
G0 X6.450 Y15.229
G0 Z0.0
G0 X5.800 Y15.993
G0 Z1.0
G0 X6.620 Y16.814
G0 Z0.0
G0 X11.570 Y21.763
G0 Z1.0
G0 X10.531 Y22.139
G0 Z0.0
G0 X7.151 Y18.758
G0 Z1.0
G0 X5.176 Y16.783
G0 Z0.0
G0 X4.565 Y17.586
G0 Z1.0
G0 X7.681 Y20.703
G0 Z0.0
G0 X9.468 Y22.489
G0 Z1.0
G0 X8.455 Y22.890
G0 Z0.0
G0 X8.211 Y22.647
G0 Z1.0
G0 X3.977 Y18.413
G0 Z0.0
G0 X3.397 Y19.247
G0 Z1.0
G0 X3.792 Y19.642
G0 Z0.0
G0 X7.471 Y23.321
G0 Z1.0
G0 X6.542 Y23.806
G0 Z0.0
G0 X4.322 Y21.587
G0 Z1.0
G0 X2.837 Y20.101
G0 Z0.0
G0 X2.293 Y20.971
G0 Z1.0
G0 X4.853 Y23.531
G0 Z0.0
G0 X5.655 Y24.333
G0 Z1.0
G0 X4.794 Y24.887
G0 Z0.0
G0 X1.802 Y21.894
G0 Z1.0
G0 X1.456 Y22.963
G0 Z0.0
G0 X3.990 Y25.497
G0 Z1.0
G0 X3.226 Y26.147
G0 Z0.0
G0 X1.494 Y24.415
G0 Z1.0
G0 X1.208 Y24.129
G0 Z0.0
G0 X0.991 Y25.326
G0 Z1.0
G0 X2.024 Y26.359
G0 Z0.0
G0 X2.501 Y26.836
G0 Z1.0
G0 X1.814 Y27.564
G0 Z0.0
G0 X0.783 Y26.532
G0 Z1.0
G0 X0.662 Y27.308
G0 Z0.0
G0 X-0.966 Y27.054
G0 Z1.0
G0 X0.247 Y20.749
G0 Z0.0
G0 X2.991 Y14.828
G0 Z1.0
G0 X7.072 Y9.846
G0 Z0.0
G0 X11.177 Y6.625
G0 Z1.0
G0 X15.817 Y4.277
G0 Z0.0

G0 X0.0 Y0.0
M30
